{"type":"FeatureCollection", "features": [
{"type":"Feature","geometry":{"type":"Polygon","coordinates":[[[121.44998,0.84648],[121.4373,0.84693],[121.43335,0.84421],[121.42593,0.84326],[121.42016,0.84404],[121.41695,0.84747],[121.40669,0.84447],[121.41279,0.83431],[121.41131,0.81138],[121.40422,0.80171],[121.39984,0.7829],[121.39352,0.77575],[121.39175,0.76668],[121.39545,0.75836],[121.40389,0.74976],[121.40378,0.74714],[121.40627,0.745],[121.4089,0.73804],[121.41208,0.73756],[121.40989,0.73132],[121.41269,0.72295],[121.40151,0.71438],[121.39322,0.71156],[121.3983,0.69225],[121.40287,0.69059],[121.41573,0.67902],[121.42122,0.67975],[121.43019,0.67434],[121.43255,0.67126],[121.43213,0.66756],[121.43367,0.66829],[121.43513,0.66565],[121.42946,0.6606],[121.42893,0.6579],[121.42234,0.65447],[121.421,0.64728],[121.42425,0.63722],[121.42134,0.63486],[121.42198,0.63265],[121.41914,0.62867],[121.42041,0.62255],[121.41371,0.61614],[121.41714,0.61079],[121.41843,0.61013],[121.41936,0.61136],[121.42226,0.60831],[121.42103,0.60491],[121.42539,0.59286],[121.42603,0.59238],[121.42773,0.59368],[121.42973,0.59284],[121.43177,0.59507],[121.43584,0.59427],[121.43924,0.59592],[121.4428,0.59566],[121.44376,0.59301],[121.44805,0.59485],[121.45252,0.59341],[121.45472,0.59445],[121.46114,0.59109],[121.46099,0.58906],[121.45931,0.58991],[121.45747,0.58795],[121.46091,0.58649],[121.46315,0.58347],[121.46322,0.57845],[121.46015,0.5733],[121.46226,0.57163],[121.46226,0.56957],[121.45651,0.56854],[121.45581,0.56423],[121.45316,0.56279],[121.4521,0.5599],[121.45503,0.56015],[121.45578,0.55745],[121.45822,0.55789],[121.45946,0.55563],[121.46296,0.55607],[121.46738,0.55168],[121.46963,0.55243],[121.47137,0.5513],[121.47237,0.5507],[121.47512,0.55029],[121.47727,0.55178],[121.47636,0.58992],[121.48023,0.59541],[121.47495,0.61313],[121.47413,0.62864],[121.46382,0.67017],[121.47005,0.68679],[121.46011,0.69659],[121.45803,0.7013],[121.44763,0.70666],[121.44672,0.71058],[121.44782,0.71961],[121.46068,0.7323],[121.46198,0.73949],[121.47126,0.7531],[121.47786,0.75224],[121.4794,0.75388],[121.48361,0.7537],[121.48575,0.75633],[121.48393,0.76085],[121.48571,0.76315],[121.48015,0.76343],[121.48047,0.76776],[121.47691,0.77336],[121.47776,0.77471],[121.48026,0.77278],[121.48223,0.77975],[121.48575,0.78155],[121.48405,0.78434],[121.4858,0.7863],[121.48202,0.78759],[121.48202,0.78938],[121.47596,0.78507],[121.47676,0.7883],[121.4712,0.78879],[121.47128,0.7978],[121.46897,0.80103],[121.46708,0.79988],[121.46735,0.81039],[121.46417,0.81095],[121.46008,0.81522],[121.46114,0.81826],[121.4602,0.81921],[121.45741,0.81929],[121.45035,0.82389],[121.45102,0.82749],[121.44418,0.83725],[121.44468,0.84332],[121.44998,0.84648]]]},"properties":{"KECAMATAN":"POPAYATO TIMUR","DESA":"MARISA","ID":126}},
{"type":"Feature","geometry":{"type":"MultiPolygon","coordinates":[[[[121.55945,0.45948],[121.55988,0.46251],[121.55678,0.46361],[121.55746,0.46008],[121.55945,0.45948]]],[[[121.52501,0.48078],[121.52624,0.48298],[121.52394,0.4883],[121.51888,0.49029],[121.51513,0.48908],[121.51585,0.48543],[121.52169,0.48093],[121.52501,0.48078]]],[[[121.50219,0.54773],[121.49874,0.55101],[121.50021,0.55518],[121.49895,0.55669],[121.50213,0.56185],[121.49852,0.56496],[121.49848,0.5685],[121.49637,0.56973],[121.49928,0.57231],[121.50393,0.58483],[121.50339,0.58708],[121.50065,0.58717],[121.50105,0.58929],[121.49928,0.58879],[121.49951,0.59975],[121.49145,0.60769],[121.4869,0.60973],[121.48229,0.62152],[121.47413,0.62864],[121.47495,0.61313],[121.48023,0.59541],[121.47636,0.58992],[121.47727,0.55178],[121.4808,0.55174],[121.48321,0.5394],[121.49031,0.52573],[121.49202,0.52564],[121.49482,0.51913],[121.4963,0.51929],[121.50386,0.5166],[121.50443,0.51241],[121.50744,0.50869],[121.50701,0.50368],[121.51127,0.49231],[121.51366,0.4946],[121.51881,0.49561],[121.52,0.50079],[121.51833,0.50663],[121.51318,0.51231],[121.51268,0.51286],[121.49689,0.53396],[121.49466,0.54444],[121.50219,0.54773]]]]},"properties":{"KECAMATAN":"POPAYATO TIMUR","DESA":"LONDOUN","ID":127}},
{"type":"Feature","geometry":{"type":"Polygon","coordinates":[[[121.49031,0.52573],[121.48321,0.5394],[121.4808,0.55174],[121.47727,0.55178],[121.47512,0.55029],[121.47237,0.5507],[121.47312,0.55024],[121.47518,0.54641],[121.473,0.54314],[121.47621,0.54027],[121.47583,0.53834],[121.47203,0.53678],[121.4743,0.53267],[121.47354,0.53044],[121.47183,0.53029],[121.47185,0.52605],[121.49031,0.52573]]]},"properties":{"KECAMATAN":"POPAYATO TIMUR","DESA":"TAHELE","ID":119}},
{"type":"Feature","geometry":{"type":"Polygon","coordinates":[[[121.49031,0.52573],[121.47185,0.52605],[121.46926,0.51875],[121.472,0.51678],[121.47502,0.51118],[121.47695,0.50826],[121.4784,0.50993],[121.47844,0.50713],[121.48014,0.50696],[121.48046,0.50658],[121.4963,0.51929],[121.49482,0.51913],[121.49202,0.52564],[121.49031,0.52573]]]},"properties":{"KECAMATAN":"POPAYATO TIMUR","DESA":"MALEO","ID":120}},
{"type":"Feature","geometry":{"type":"MultiPolygon","coordinates":[[[[121.5121,0.48624],[121.51021,0.48507],[121.51064,0.48371],[121.51315,0.48419],[121.51315,0.48626],[121.5121,0.48624]]],[[[121.51127,0.49231],[121.50701,0.50368],[121.50744,0.50869],[121.50443,0.51241],[121.50386,0.5166],[121.4963,0.51929],[121.48046,0.50658],[121.48064,0.50638],[121.48192,0.50302],[121.48418,0.50286],[121.486,0.50074],[121.48913,0.50113],[121.48888,0.49621],[121.49101,0.49531],[121.49976,0.48421],[121.50211,0.48825],[121.50081,0.48996],[121.5077,0.4869],[121.51061,0.48906],[121.51127,0.49231]]]]},"properties":{"KECAMATAN":"POPAYATO TIMUR","DESA":"BUNTO","ID":121}},
{"type":"Feature","geometry":{"type":"Polygon","coordinates":[[[121.38545,0.47927],[121.38242,0.49379],[121.38377,0.49854],[121.38254,0.51309],[121.37048,0.52881],[121.36918,0.55589],[121.37607,0.56617],[121.37856,0.56766],[121.38235,0.57731],[121.38435,0.58921],[121.38279,0.59819],[121.38144,0.60118],[121.37252,0.60884],[121.3684,0.61584],[121.36814,0.62025],[121.36169,0.62544],[121.34519,0.64489],[121.33797,0.6493],[121.3287,0.64618],[121.31839,0.64799],[121.30782,0.65422],[121.30447,0.65785],[121.29931,0.65914],[121.28591,0.65628],[121.2805,0.64876],[121.2635,0.64305],[121.25525,0.64175],[121.2483,0.63681],[121.23567,0.63551],[121.23122,0.63376],[121.22755,0.62921],[121.22788,0.62617],[121.2311,0.62146],[121.23513,0.60824],[121.23941,0.60225],[121.24286,0.60052],[121.24964,0.60102],[121.2618,0.58991],[121.27159,0.58687],[121.27543,0.58251],[121.29493,0.58011],[121.30023,0.57557],[121.30121,0.57045],[121.30385,0.56785],[121.30763,0.56858],[121.3164,0.57845],[121.31979,0.57631],[121.32404,0.57664],[121.32988,0.57449],[121.33651,0.57483],[121.34332,0.56583],[121.34573,0.56534],[121.35665,0.56415],[121.35822,0.56204],[121.35935,0.55381],[121.35676,0.53922],[121.35185,0.53297],[121.34952,0.52646],[121.34953,0.51917],[121.36452,0.5153],[121.36521,0.49492],[121.37064,0.47644],[121.38305,0.47763],[121.38545,0.47927]]]},"properties":{"KECAMATAN":"POPAYATO BARAT","DESA":"PERSATUAN","ID":109}},
{"type":"Feature","geometry":{"type":"Polygon","coordinates":[[[121.40471,0.50837],[121.41369,0.50806],[121.41431,0.52227],[121.40906,0.56612],[121.3991,0.57016],[121.39117,0.56606],[121.38703,0.56111],[121.38574,0.546],[121.38678,0.53871],[121.39531,0.53272],[121.39868,0.52751],[121.40231,0.51371],[121.40427,0.51301],[121.40471,0.50837]]]},"properties":{"KECAMATAN":"POPAYATO BARAT","DESA":"TUNAS JAYA","ID":110}},
{"type":"Feature","geometry":{"type":"Polygon","coordinates":[[[121.36521,0.49492],[121.36452,0.5153],[121.34953,0.51917],[121.34952,0.52646],[121.35185,0.53297],[121.35676,0.53922],[121.35935,0.55381],[121.35822,0.56204],[121.35665,0.56415],[121.34573,0.56534],[121.35027,0.55524],[121.34395,0.54739],[121.34767,0.53766],[121.34726,0.53518],[121.34257,0.52682],[121.33568,0.52654],[121.33427,0.52395],[121.3313,0.52274],[121.33369,0.52015],[121.33369,0.51169],[121.33555,0.5113],[121.33809,0.50654],[121.34442,0.50535],[121.34307,0.50347],[121.3443,0.50291],[121.3448,0.49629],[121.35158,0.49226],[121.36521,0.49492]]]},"properties":{"KECAMATAN":"POPAYATO BARAT","DESA":"MOLOSIPAT UTARA","ID":111}},
{"type":"Feature","geometry":{"type":"MultiPolygon","coordinates":[[[[121.41252,0.47727],[121.41262,0.48083],[121.4105,0.48531],[121.40922,0.48665],[121.40644,0.48618],[121.40364,0.47751],[121.40861,0.47315],[121.41019,0.47358],[121.40995,0.47541],[121.41259,0.47581],[121.41252,0.47727]]],[[[121.43911,0.5256],[121.43316,0.54756],[121.42526,0.55593],[121.42631,0.54231],[121.42445,0.52801],[121.42489,0.50685],[121.41872,0.50706],[121.41688,0.50159],[121.41532,0.50123],[121.40454,0.50294],[121.40399,0.49415],[121.40355,0.48643],[121.40432,0.48741],[121.41097,0.48751],[121.40912,0.4873],[121.41066,0.48566],[121.41292,0.48628],[121.42312,0.48217],[121.42533,0.48275],[121.42731,0.48461],[121.42777,0.48922],[121.42851,0.48704],[121.42894,0.48894],[121.43147,0.48999],[121.43433,0.49771],[121.43791,0.49853],[121.43822,0.49863],[121.43776,0.50504],[121.43911,0.5256]]]]},"properties":{"KECAMATAN":"POPAYATO BARAT","DESA":"DUDEWULO","ID":112}},
{"type":"Feature","geometry":{"type":"Polygon","coordinates":[[[121.37064,0.47644],[121.36521,0.49492],[121.35158,0.49226],[121.35056,0.48801],[121.34245,0.48351],[121.34175,0.47842],[121.33662,0.47404],[121.34209,0.47323],[121.34658,0.47588],[121.35029,0.47572],[121.36112,0.47112],[121.37064,0.47644]]]},"properties":{"KECAMATAN":"POPAYATO BARAT","DESA":"MOLOSIPAT","ID":113}},
{"type":"Feature","geometry":{"type":"Polygon","coordinates":[[[121.40669,0.84447],[121.40141,0.8435],[121.39802,0.84957],[121.39417,0.85104],[121.3906,0.85034],[121.38548,0.85433],[121.38008,0.85224],[121.3742,0.85274],[121.36797,0.8491],[121.36517,0.84948],[121.36375,0.85218],[121.35929,0.85309],[121.3549,0.85021],[121.34847,0.84989],[121.34691,0.84777],[121.34748,0.8451],[121.34824,0.84301],[121.35146,0.84126],[121.35336,0.8336],[121.35058,0.82092],[121.3586,0.81523],[121.36131,0.81475],[121.36447,0.80555],[121.36362,0.80115],[121.35584,0.80001],[121.35273,0.79482],[121.34308,0.79297],[121.33216,0.79418],[121.32629,0.79196],[121.32293,0.78704],[121.31731,0.78459],[121.30959,0.79062],[121.30615,0.7916],[121.30297,0.79533],[121.29328,0.79487],[121.28904,0.79815],[121.26969,0.79575],[121.25557,0.79868],[121.25509,0.79042],[121.25066,0.78075],[121.25451,0.76841],[121.26012,0.76113],[121.29404,0.74233],[121.30216,0.7349],[121.30645,0.73475],[121.30822,0.72509],[121.32175,0.70836],[121.33017,0.69364],[121.33188,0.6784],[121.33853,0.6665],[121.35522,0.66205],[121.36601,0.65387],[121.37251,0.65328],[121.38315,0.64971],[121.39054,0.64421],[121.39844,0.63403],[121.40539,0.61098],[121.3984,0.59106],[121.3991,0.57016],[121.40906,0.56612],[121.41431,0.52227],[121.41369,0.50806],[121.40471,0.50837],[121.40454,0.50294],[121.41532,0.50123],[121.41688,0.50159],[121.41872,0.50706],[121.42489,0.50685],[121.42445,0.52801],[121.42631,0.54231],[121.42526,0.55593],[121.42443,0.55681],[121.42337,0.56672],[121.4138,0.57225],[121.41247,0.57518],[121.4129,0.5792],[121.41575,0.58406],[121.42102,0.58999],[121.42601,0.59237],[121.42539,0.59286],[121.42103,0.60491],[121.42226,0.60831],[121.41936,0.61136],[121.41843,0.61013],[121.41714,0.61079],[121.41371,0.61614],[121.42041,0.62255],[121.41914,0.62867],[121.42198,0.63265],[121.42134,0.63486],[121.42425,0.63722],[121.421,0.64728],[121.42234,0.65447],[121.42893,0.6579],[121.42946,0.6606],[121.43513,0.66565],[121.43367,0.66829],[121.43213,0.66756],[121.43255,0.67126],[121.43019,0.67434],[121.42122,0.67975],[121.41573,0.67902],[121.40287,0.69059],[121.3983,0.69225],[121.39322,0.71156],[121.40151,0.71438],[121.41269,0.72295],[121.40989,0.73132],[121.41208,0.73756],[121.4089,0.73804],[121.40627,0.745],[121.40378,0.74714],[121.40389,0.74976],[121.39545,0.75836],[121.39175,0.76668],[121.39352,0.77575],[121.39984,0.7829],[121.40422,0.80171],[121.41131,0.81138],[121.41279,0.83431],[121.40669,0.84447]]]},"properties":{"KECAMATAN":"POPAYATO BARAT","DESA":"BUTUNGALE","ID":114}},
{"type":"Feature","geometry":{"type":"Polygon","coordinates":[[[121.25557,0.79868],[121.25223,0.79845],[121.25066,0.80017],[121.24519,0.80139],[121.23814,0.80152],[121.23229,0.79648],[121.21668,0.79204],[121.21574,0.79025],[121.21746,0.78426],[121.21374,0.7787],[121.21386,0.77371],[121.20921,0.76836],[121.20088,0.76606],[121.19305,0.76686],[121.19137,0.76538],[121.19097,0.76271],[121.18692,0.75804],[121.18591,0.75],[121.18208,0.74326],[121.18393,0.73698],[121.1827,0.73413],[121.18483,0.73148],[121.18744,0.72217],[121.18059,0.7138],[121.17888,0.7013],[121.17429,0.69302],[121.17307,0.68543],[121.16126,0.6787],[121.16552,0.66938],[121.17327,0.66544],[121.17921,0.65514],[121.18668,0.65148],[121.19438,0.6454],[121.19668,0.6419],[121.20258,0.64267],[121.21894,0.63844],[121.22849,0.64539],[121.23185,0.64153],[121.23122,0.63376],[121.23567,0.63551],[121.2483,0.63681],[121.25525,0.64175],[121.2635,0.64305],[121.2805,0.64876],[121.28591,0.65628],[121.29931,0.65914],[121.30447,0.65785],[121.30782,0.65422],[121.31839,0.64799],[121.3287,0.64618],[121.33797,0.6493],[121.34519,0.64489],[121.36169,0.62544],[121.36814,0.62025],[121.3684,0.61584],[121.37252,0.60884],[121.38144,0.60118],[121.38279,0.59819],[121.38435,0.58921],[121.38235,0.57731],[121.37856,0.56766],[121.37607,0.56617],[121.36918,0.55589],[121.37048,0.52881],[121.38254,0.51309],[121.38377,0.49854],[121.38242,0.49379],[121.38545,0.47927],[121.39111,0.4821],[121.39758,0.49122],[121.39871,0.49134],[121.39122,0.4812],[121.3917,0.47744],[121.39849,0.47854],[121.39786,0.48194],[121.40015,0.48225],[121.40082,0.48456],[121.40355,0.48643],[121.40432,0.48741],[121.40399,0.49415],[121.40454,0.50294],[121.40471,0.50837],[121.40427,0.51301],[121.40231,0.51371],[121.39868,0.52751],[121.39531,0.53272],[121.38678,0.53871],[121.38574,0.546],[121.38703,0.56111],[121.39117,0.56606],[121.3991,0.57016],[121.3984,0.59106],[121.40539,0.61098],[121.39844,0.63403],[121.39054,0.64421],[121.38315,0.64971],[121.37251,0.65328],[121.36601,0.65387],[121.35522,0.66205],[121.33853,0.6665],[121.33188,0.6784],[121.33017,0.69364],[121.32175,0.70836],[121.30822,0.72509],[121.30645,0.73475],[121.30216,0.7349],[121.29404,0.74233],[121.26012,0.76113],[121.25451,0.76841],[121.25066,0.78075],[121.25509,0.79042],[121.25557,0.79868]]]},"properties":{"KECAMATAN":"POPAYATO BARAT","DESA":"PADENGO","ID":115}},
{"type":"Feature","geometry":{"type":"Polygon","coordinates":[[[121.47137,0.5513],[121.46963,0.55243],[121.46738,0.55168],[121.46296,0.55607],[121.45946,0.55563],[121.45822,0.55789],[121.45578,0.55745],[121.45503,0.56015],[121.4521,0.5599],[121.45316,0.56279],[121.45581,0.56423],[121.45651,0.56854],[121.46226,0.56957],[121.46226,0.57163],[121.46015,0.5733],[121.46322,0.57845],[121.46315,0.58347],[121.46091,0.58649],[121.45747,0.58795],[121.45931,0.58991],[121.46099,0.58906],[121.46114,0.59109],[121.45472,0.59445],[121.45252,0.59341],[121.44805,0.59485],[121.44376,0.59301],[121.4428,0.59566],[121.43924,0.59592],[121.43584,0.59427],[121.45301,0.53729],[121.47583,0.53834],[121.47621,0.54027],[121.473,0.54314],[121.47518,0.54641],[121.47312,0.55024],[121.47137,0.5513]]]},"properties":{"KECAMATAN":"POPAYATO","DESA":"TUNAS HARAPAN","ID":96}},
{"type":"Feature","geometry":{"type":"Polygon","coordinates":[[[121.43584,0.59427],[121.43177,0.59507],[121.42973,0.59284],[121.42773,0.59368],[121.42603,0.59238],[121.42601,0.59237],[121.42102,0.58999],[121.41575,0.58406],[121.4129,0.5792],[121.41247,0.57518],[121.4138,0.57225],[121.42337,0.56672],[121.42443,0.55681],[121.42526,0.55593],[121.43316,0.54756],[121.43911,0.5256],[121.45044,0.52476],[121.45499,0.52583],[121.45463,0.53398],[121.45301,0.53729],[121.43584,0.59427]]]},"properties":{"KECAMATAN":"POPAYATO","DESA":"DAMBALO","ID":97}},
{"type":"Feature","geometry":{"type":"Polygon","coordinates":[[[121.47185,0.52605],[121.47183,0.53029],[121.47354,0.53044],[121.4743,0.53267],[121.47203,0.53678],[121.47583,0.53834],[121.45301,0.53729],[121.45463,0.53398],[121.45499,0.52583],[121.46276,0.51166],[121.46662,0.50658],[121.46754,0.50712],[121.47048,0.50883],[121.47502,0.51118],[121.472,0.51678],[121.46926,0.51875],[121.47185,0.52605]]]},"properties":{"KECAMATAN":"POPAYATO","DESA":"BUKIT TINGKI","ID":98}},
{"type":"Feature","geometry":{"type":"Polygon","coordinates":[[[121.46276,0.51166],[121.45499,0.52583],[121.45044,0.52476],[121.43911,0.5256],[121.43776,0.50504],[121.43791,0.49853],[121.43822,0.49863],[121.43896,0.50091],[121.44213,0.49942],[121.44726,0.5014],[121.45144,0.50124],[121.45138,0.50609],[121.46276,0.51166]]]},"properties":{"KECAMATAN":"POPAYATO","DESA":"TELEGA","ID":99}},
{"type":"Feature","geometry":{"type":"Polygon","coordinates":[[[121.46754,0.50712],[121.46662,0.50658],[121.46276,0.51166],[121.45138,0.50609],[121.45144,0.50124],[121.4587,0.49894],[121.45612,0.49381],[121.46441,0.49465],[121.46415,0.50101],[121.46638,0.50102],[121.46595,0.50452],[121.46801,0.50586],[121.46754,0.50712]]]},"properties":{"KECAMATAN":"POPAYATO","DESA":"TELAGA BIRU","ID":100}},
{"type":"Feature","geometry":{"type":"Polygon","coordinates":[[[121.48014,0.50696],[121.47844,0.50713],[121.4784,0.50993],[121.47695,0.50826],[121.47502,0.51118],[121.47048,0.50883],[121.47153,0.50671],[121.47536,0.50592],[121.47415,0.50474],[121.4802,0.49632],[121.48639,0.48368],[121.49243,0.48015],[121.49272,0.47773],[121.49976,0.48421],[121.49101,0.49531],[121.48888,0.49621],[121.48913,0.50113],[121.486,0.50074],[121.48418,0.50286],[121.48192,0.50302],[121.48064,0.50638],[121.48014,0.50696]]]},"properties":{"KECAMATAN":"POPAYATO","DESA":"POPAYATO","ID":101}},
{"type":"Feature","geometry":{"type":"MultiPolygon","coordinates":[[[[121.45478,0.4889],[121.46989,0.4799],[121.47731,0.48404],[121.48639,0.48368],[121.4802,0.49632],[121.47415,0.50474],[121.47536,0.50592],[121.47153,0.50671],[121.47048,0.50883],[121.46595,0.50452],[121.46638,0.50102],[121.46415,0.50101],[121.46441,0.49465],[121.45612,0.49381],[121.45478,0.4889]]],[[[121.51708,0.43487],[121.52061,0.43628],[121.52012,0.43948],[121.5152,0.43708],[121.51708,0.43487]]],[[[121.50318,0.43473],[121.50361,0.43626],[121.49961,0.43663],[121.5003,0.43518],[121.50318,0.43473]]]]},"properties":{"KECAMATAN":"POPAYATO","DESA":"TRIKORA","ID":102}},
{"type":"Feature","geometry":{"type":"Polygon","coordinates":[[[121.45612,0.49381],[121.4587,0.49894],[121.44726,0.5014],[121.44213,0.49942],[121.44189,0.49642],[121.43824,0.49239],[121.43675,0.49253],[121.44472,0.49043],[121.44317,0.48767],[121.44446,0.48743],[121.44547,0.49026],[121.45296,0.48519],[121.45478,0.4889],[121.45612,0.49381]]]},"properties":{"KECAMATAN":"POPAYATO","DESA":"BUMI BAHARI","ID":103}},
{"type":"Feature","geometry":{"type":"Polygon","coordinates":[[[121.74086,0.6034],[121.74045,0.63543],[121.72752,0.64016],[121.72656,0.64534],[121.72168,0.64937],[121.72473,0.65209],[121.72455,0.65973],[121.71374,0.66701],[121.71043,0.6678],[121.71017,0.66921],[121.72731,0.68433],[121.73541,0.69769],[121.74022,0.7015],[121.73922,0.71995],[121.74545,0.72889],[121.74722,0.73509],[121.74586,0.74478],[121.75147,0.753],[121.75119,0.75904],[121.74639,0.76386],[121.74615,0.76579],[121.74975,0.76893],[121.75119,0.77448],[121.74423,0.77834],[121.74088,0.7781],[121.73752,0.77979],[121.73464,0.7834],[121.73488,0.78919],[121.73704,0.79378],[121.7368,0.80488],[121.73584,0.80753],[121.72984,0.81236],[121.72792,0.81766],[121.72289,0.82032],[121.72169,0.82393],[121.72385,0.82972],[121.73984,0.84173],[121.73279,0.84001],[121.72849,0.83722],[121.7172,0.83696],[121.71438,0.83198],[121.71642,0.82856],[121.71546,0.82434],[121.71245,0.82365],[121.71434,0.82063],[121.70714,0.81391],[121.70758,0.80439],[121.71192,0.79566],[121.71232,0.79109],[121.71528,0.78851],[121.71666,0.78405],[121.7141,0.77988],[121.70749,0.77789],[121.70597,0.77561],[121.70547,0.77213],[121.70804,0.76995],[121.71218,0.76191],[121.71199,0.75765],[121.70104,0.74307],[121.70238,0.73484],[121.70129,0.72795],[121.69438,0.7172],[121.70092,0.71201],[121.69928,0.69569],[121.70475,0.67147],[121.70715,0.6691],[121.70868,0.61837],[121.71315,0.60586],[121.71243,0.56035],[121.72433,0.55865],[121.7217,0.56481],[121.71814,0.56643],[121.71707,0.57118],[121.7207,0.57662],[121.72623,0.57968],[121.72974,0.5848],[121.73114,0.59205],[121.74086,0.6034]]]},"properties":{"KECAMATAN":"WANGGARASI","DESA":"TUWEYA","ID":160}},
{"type":"Feature","geometry":{"type":"Polygon","coordinates":[[[121.77138,0.60902],[121.77398,0.62317],[121.77052,0.62265],[121.76979,0.62909],[121.76714,0.6296],[121.7642,0.63412],[121.76119,0.63249],[121.76111,0.635],[121.75597,0.63752],[121.75646,0.63956],[121.74045,0.63543],[121.74086,0.6034],[121.74263,0.60938],[121.7461,0.60827],[121.75476,0.59601],[121.75932,0.59378],[121.76202,0.59539],[121.76522,0.5944],[121.76547,0.59675],[121.76771,0.59711],[121.76819,0.60871],[121.77138,0.60902]]]},"properties":{"KECAMATAN":"WANGGARASI","DESA":"BOHUSAMI","ID":161}},
{"type":"Feature","geometry":{"type":"Polygon","coordinates":[[[121.7347,0.53481],[121.76408,0.53717],[121.75445,0.59633],[121.7461,0.60827],[121.74263,0.60938],[121.74086,0.6034],[121.73114,0.59205],[121.72974,0.5848],[121.72623,0.57968],[121.7207,0.57662],[121.71707,0.57118],[121.71814,0.56643],[121.7217,0.56481],[121.72433,0.55865],[121.72501,0.55521],[121.72118,0.55137],[121.72022,0.544],[121.73416,0.53512],[121.7347,0.53481]]]},"properties":{"KECAMATAN":"RANDANGAN","DESA":"SIDORUKUN","ID":128}},
{"type":"Feature","geometry":{"type":"Polygon","coordinates":[[[121.80879,0.58764],[121.79115,0.59273],[121.78981,0.59012],[121.78634,0.59143],[121.78445,0.59049],[121.77846,0.59259],[121.77315,0.59767],[121.76771,0.59711],[121.76547,0.59675],[121.76522,0.5944],[121.76202,0.59539],[121.75932,0.59378],[121.75445,0.59633],[121.76408,0.53717],[121.76614,0.52984],[121.76721,0.52993],[121.7881,0.53261],[121.78477,0.53606],[121.78447,0.55105],[121.78893,0.55585],[121.81792,0.55633],[121.82001,0.5577],[121.82419,0.55582],[121.82762,0.55698],[121.82734,0.55842],[121.82391,0.55887],[121.82121,0.56199],[121.82191,0.56709],[121.82011,0.57054],[121.8141,0.56832],[121.81218,0.5728],[121.80843,0.57477],[121.80937,0.57942],[121.81443,0.58267],[121.81382,0.58439],[121.80887,0.58653],[121.80882,0.58729],[121.80879,0.58764]]]},"properties":{"KECAMATAN":"RANDANGAN","DESA":"SARI MURNI","ID":129}},
{"type":"Feature","geometry":{"type":"Polygon","coordinates":[[[121.84028,0.54155],[121.83986,0.55432],[121.82717,0.56615],[121.82191,0.56709],[121.82121,0.56199],[121.82391,0.55887],[121.82734,0.55842],[121.82762,0.55698],[121.82419,0.55582],[121.82001,0.5577],[121.81792,0.55633],[121.81802,0.55477],[121.82429,0.55046],[121.82404,0.54219],[121.82521,0.54003],[121.82404,0.53382],[121.82817,0.5351],[121.83315,0.53054],[121.83306,0.53519],[121.83832,0.54028],[121.84013,0.54145],[121.84028,0.54155]]]},"properties":{"KECAMATAN":"RANDANGAN","DESA":"AYULA","ID":130}},
{"type":"Feature","geometry":{"type":"Polygon","coordinates":[[[121.82004,0.55391],[121.81802,0.55477],[121.81792,0.55633],[121.78893,0.55585],[121.78447,0.55105],[121.78477,0.53606],[121.78896,0.5317],[121.80009,0.53273],[121.79955,0.54357],[121.82004,0.55391]]]},"properties":{"KECAMATAN":"RANDANGAN","DESA":"BANUROJA","ID":131}},
{"type":"Feature","geometry":{"type":"Polygon","coordinates":[[[121.82383,0.5346],[121.82521,0.54003],[121.82404,0.54219],[121.82429,0.55046],[121.82004,0.55391],[121.79955,0.54357],[121.80009,0.53273],[121.78896,0.5317],[121.7894,0.52735],[121.81145,0.52665],[121.81485,0.5293],[121.81854,0.52667],[121.8188,0.53216],[121.82383,0.5346]]]},"properties":{"KECAMATAN":"RANDANGAN","DESA":"MANUNGGAL KARYA","ID":132}},
{"type":"Feature","geometry":{"type":"Polygon","coordinates":[[[121.76408,0.53717],[121.7347,0.53481],[121.73498,0.53465],[121.73666,0.52897],[121.74618,0.51728],[121.7476,0.51191],[121.75219,0.51034],[121.75637,0.50541],[121.75645,0.5053],[121.76199,0.50953],[121.76911,0.51185],[121.76721,0.52993],[121.76614,0.52984],[121.76408,0.53717]]]},"properties":{"KECAMATAN":"RANDANGAN","DESA":"PELAMBANE","ID":133}},
{"type":"Feature","geometry":{"type":"Polygon","coordinates":[[[121.84639,0.51149],[121.84435,0.52251],[121.83401,0.5278],[121.82919,0.53464],[121.82383,0.5346],[121.8188,0.53216],[121.81854,0.52667],[121.81928,0.52463],[121.80214,0.52431],[121.80183,0.51594],[121.82169,0.51704],[121.82167,0.51477],[121.82551,0.51642],[121.82539,0.5139],[121.82049,0.50903],[121.84777,0.50922],[121.84666,0.51105],[121.84639,0.51149]]]},"properties":{"KECAMATAN":"RANDANGAN","DESA":"OMAYUWA","ID":134}},
{"type":"Feature","geometry":{"type":"Polygon","coordinates":[[[121.79153,0.50851],[121.78875,0.51014],[121.78566,0.51595],[121.78907,0.52068],[121.7881,0.53261],[121.76721,0.52993],[121.76911,0.51185],[121.76199,0.50953],[121.75645,0.5053],[121.75662,0.50504],[121.76374,0.48646],[121.77717,0.49956],[121.79204,0.49784],[121.79153,0.50851]]]},"properties":{"KECAMATAN":"RANDANGAN","DESA":"PATUHU","ID":135}},
{"type":"Feature","geometry":{"type":"Polygon","coordinates":[[[121.81854,0.52667],[121.81485,0.5293],[121.81145,0.52665],[121.7894,0.52735],[121.78907,0.52068],[121.79529,0.52398],[121.80214,0.52431],[121.81928,0.52463],[121.81854,0.52667]]]},"properties":{"KECAMATAN":"RANDANGAN","DESA":"MOTOLOHU","ID":136}},
{"type":"Feature","geometry":{"type":"Polygon","coordinates":[[[121.80183,0.51594],[121.80214,0.52431],[121.79529,0.52398],[121.78907,0.52068],[121.78566,0.51595],[121.78875,0.51014],[121.79153,0.50851],[121.80183,0.51594]]]},"properties":{"KECAMATAN":"RANDANGAN","DESA":"MOTOLOHU SELATAN","ID":137}},
{"type":"Feature","geometry":{"type":"Polygon","coordinates":[[[121.82049,0.50903],[121.82539,0.5139],[121.82551,0.51642],[121.82167,0.51477],[121.82169,0.51704],[121.80199,0.51617],[121.79153,0.50851],[121.79204,0.49784],[121.81672,0.49547],[121.81772,0.49671],[121.82047,0.49526],[121.82357,0.49577],[121.8259,0.49307],[121.82737,0.49349],[121.82472,0.49915],[121.82287,0.49886],[121.82194,0.49638],[121.82021,0.49716],[121.82494,0.5034],[121.82175,0.50327],[121.82197,0.50645],[121.81743,0.50595],[121.81761,0.50712],[121.81999,0.5071],[121.82049,0.50903]]]},"properties":{"KECAMATAN":"RANDANGAN","DESA":"HUYULA","ID":138}},
{"type":"Feature","geometry":{"type":"MultiPolygon","coordinates":[[[[121.85658,0.4996],[121.85362,0.50595],[121.84777,0.50922],[121.82049,0.50903],[121.81999,0.5071],[121.81761,0.50712],[121.81743,0.50595],[121.82197,0.50645],[121.82175,0.50327],[121.82494,0.5034],[121.82021,0.49716],[121.82194,0.49638],[121.82287,0.49886],[121.82472,0.49915],[121.82737,0.49349],[121.8259,0.49307],[121.82357,0.49577],[121.82047,0.49526],[121.81772,0.49671],[121.81672,0.49547],[121.8183,0.49156],[121.81506,0.49325],[121.81349,0.49095],[121.81594,0.48774],[121.81842,0.48726],[121.81283,0.4825],[121.81773,0.4828],[121.8192,0.47917],[121.81491,0.47946],[121.81381,0.4764],[121.81538,0.47448],[121.81244,0.47369],[121.8144,0.47165],[121.81255,0.4678],[121.80719,0.46549],[121.80894,0.46381],[121.80621,0.46415],[121.82168,0.43519],[121.82688,0.4226],[121.83276,0.42326],[121.84228,0.42718],[121.84287,0.42822],[121.84073,0.42767],[121.84571,0.43022],[121.84627,0.43336],[121.84841,0.43525],[121.8476,0.44745],[121.84939,0.44841],[121.84962,0.45146],[121.84617,0.46471],[121.84968,0.47232],[121.84711,0.48159],[121.84889,0.48607],[121.85169,0.4864],[121.85491,0.49039],[121.85409,0.49399],[121.85579,0.4947],[121.85631,0.49786],[121.85658,0.4996]]],[[[121.84843,0.43496],[121.84628,0.42986],[121.84895,0.42711],[121.84843,0.43496]]]]},"properties":{"KECAMATAN":"RANDANGAN","DESA":"IMBODU","ID":139}},
{"type":"Feature","geometry":{"type":"Polygon","coordinates":[[[121.79204,0.49784],[121.77717,0.49956],[121.76374,0.48646],[121.77305,0.47026],[121.77561,0.44029],[121.77956,0.43798],[121.78362,0.43762],[121.79153,0.43041],[121.80126,0.41775],[121.80297,0.40905],[121.81346,0.42069],[121.82688,0.4226],[121.82168,0.43519],[121.80621,0.46415],[121.80894,0.46381],[121.80719,0.46549],[121.81255,0.4678],[121.8144,0.47165],[121.81244,0.47369],[121.81538,0.47448],[121.81381,0.4764],[121.81491,0.47946],[121.8192,0.47917],[121.81773,0.4828],[121.81283,0.4825],[121.81842,0.48726],[121.81594,0.48774],[121.81349,0.49095],[121.81506,0.49325],[121.8183,0.49156],[121.81672,0.49547],[121.79204,0.49784]]]},"properties":{"KECAMATAN":"RANDANGAN","DESA":"SIDOWONGE","ID":140}},
{"type":"Feature","geometry":{"type":"Polygon","coordinates":[[[121.97015,0.72504],[121.96487,0.72557],[121.96125,0.724],[121.95812,0.72532],[121.95245,0.72139],[121.95348,0.72532],[121.94743,0.72102],[121.94493,0.72191],[121.94295,0.72031],[121.93914,0.72163],[121.93812,0.71908],[121.92961,0.71788],[121.9294,0.71466],[121.92493,0.71273],[121.92252,0.70959],[121.91728,0.70855],[121.91418,0.70505],[121.9129,0.70075],[121.91414,0.69354],[121.91158,0.69621],[121.90972,0.69461],[121.91315,0.68807],[121.908,0.68795],[121.90937,0.68193],[121.90236,0.67914],[121.8994,0.67127],[121.90852,0.6453],[121.90588,0.64128],[121.90204,0.63723],[121.89188,0.5927],[121.87536,0.56089],[121.87538,0.55505],[121.87052,0.55158],[121.87136,0.54697],[121.86393,0.53585],[121.86369,0.53329],[121.8685,0.52804],[121.86765,0.52232],[121.87131,0.52092],[121.87537,0.51625],[121.8733,0.51067],[121.87981,0.50909],[121.8812,0.50449],[121.88577,0.50667],[121.88783,0.50625],[121.88944,0.51352],[121.88887,0.51644],[121.89406,0.52571],[121.89482,0.5385],[121.90545,0.55443],[121.9117,0.59132],[121.91595,0.60798],[121.9254,0.63201],[121.94021,0.65075],[121.95685,0.66694],[121.97159,0.67609],[121.9768,0.67566],[121.98319,0.67733],[121.97048,0.69565],[121.9685,0.70664],[121.97073,0.71787],[121.97023,0.72337],[121.97083,0.72424],[121.97015,0.72504]]]},"properties":{"KECAMATAN":"PATILANGGIO","DESA":"DUDEPO","ID":80}},
{"type":"Feature","geometry":{"type":"Polygon","coordinates":[[[121.98319,0.67733],[121.9768,0.67566],[121.97159,0.67609],[121.95685,0.66694],[121.94021,0.65075],[121.9254,0.63201],[121.91595,0.60798],[121.9117,0.59132],[121.90545,0.55443],[121.89482,0.5385],[121.89406,0.52571],[121.88887,0.51644],[121.88944,0.51352],[121.90101,0.51178],[121.90953,0.50704],[121.91527,0.50795],[121.92447,0.52036],[121.92849,0.52131],[121.93576,0.52397],[121.93776,0.52799],[121.94035,0.53427],[121.9364,0.55717],[121.93828,0.57073],[121.93479,0.57772],[121.92968,0.58346],[121.93567,0.58845],[121.93505,0.59691],[121.9398,0.60515],[121.94366,0.60864],[121.94504,0.61376],[121.9494,0.61775],[121.94723,0.63016],[121.95072,0.63215],[121.95309,0.63615],[121.95846,0.63901],[121.96074,0.646],[121.9713,0.65526],[121.97622,0.66546],[121.9836,0.67202],[121.98319,0.67733]]]},"properties":{"KECAMATAN":"PATILANGGIO","DESA":"BALAYO","ID":81}},
{"type":"Feature","geometry":{"type":"Polygon","coordinates":[[[121.86369,0.53329],[121.86393,0.53585],[121.87136,0.54697],[121.87052,0.55158],[121.87538,0.55505],[121.87536,0.56089],[121.89188,0.5927],[121.90204,0.63723],[121.89681,0.63171],[121.85898,0.60536],[121.83971,0.59041],[121.82861,0.58641],[121.80912,0.58708],[121.80882,0.58729],[121.80887,0.58653],[121.81382,0.58439],[121.81443,0.58267],[121.80937,0.57942],[121.80843,0.57477],[121.81218,0.5728],[121.8141,0.56832],[121.82011,0.57054],[121.82191,0.56709],[121.82717,0.56615],[121.83986,0.55432],[121.84028,0.54155],[121.84013,0.54145],[121.84504,0.53626],[121.85412,0.53694],[121.85747,0.53208],[121.86369,0.53329]]]},"properties":{"KECAMATAN":"PATILANGGIO","DESA":"ILOHELUMA","ID":82}},
{"type":"Feature","geometry":{"type":"Polygon","coordinates":[[[121.86369,0.53329],[121.85747,0.53208],[121.85412,0.53694],[121.84504,0.53626],[121.84013,0.54145],[121.83832,0.54028],[121.83306,0.53519],[121.83315,0.53054],[121.83621,0.52611],[121.84435,0.52251],[121.84666,0.51105],[121.85215,0.51352],[121.85614,0.51728],[121.85715,0.52205],[121.86099,0.52315],[121.86765,0.52232],[121.8685,0.52804],[121.86369,0.53329]]]},"properties":{"KECAMATAN":"PATILANGGIO","DESA":"SUKAMAKMUR","ID":83}},
{"type":"Feature","geometry":{"type":"Polygon","coordinates":[[[121.86765,0.52232],[121.86099,0.52315],[121.85715,0.52205],[121.85614,0.51728],[121.85215,0.51352],[121.84666,0.51105],[121.84777,0.50922],[121.85362,0.50595],[121.85658,0.4996],[121.85639,0.4984],[121.86595,0.5015],[121.8733,0.51067],[121.87537,0.51625],[121.87131,0.52092],[121.86765,0.52232]]]},"properties":{"KECAMATAN":"PATILANGGIO","DESA":"DULOMO","ID":84}},
{"type":"Feature","geometry":{"type":"MultiPolygon","coordinates":[[[[121.88783,0.50625],[121.88577,0.50667],[121.8812,0.50449],[121.87981,0.50909],[121.8733,0.51067],[121.86595,0.5015],[121.85639,0.4984],[121.85631,0.49786],[121.85579,0.4947],[121.85409,0.49399],[121.85491,0.49039],[121.85169,0.4864],[121.84889,0.48607],[121.84711,0.48159],[121.84968,0.47232],[121.84617,0.46471],[121.84962,0.45146],[121.84939,0.44841],[121.8476,0.44745],[121.84841,0.43525],[121.85278,0.43775],[121.85267,0.44078],[121.85948,0.44001],[121.86261,0.44225],[121.87482,0.4397],[121.8781,0.4358],[121.87992,0.4399],[121.88004,0.43731],[121.88131,0.43708],[121.87585,0.45926],[121.88059,0.45915],[121.88158,0.46289],[121.87937,0.46325],[121.87972,0.46657],[121.87815,0.46998],[121.88193,0.47073],[121.88081,0.47666],[121.88363,0.47695],[121.88433,0.47975],[121.88972,0.48284],[121.88685,0.48471],[121.88654,0.48689],[121.88817,0.49554],[121.89157,0.49935],[121.89126,0.50076],[121.8884,0.50161],[121.88783,0.50625]]],[[[121.86781,0.43989],[121.86241,0.44193],[121.85934,0.43982],[121.8533,0.44061],[121.85576,0.43678],[121.86042,0.43424],[121.86485,0.43913],[121.86738,0.43816],[121.86781,0.43989]]],[[[121.85527,0.43781],[121.85301,0.44006],[121.85447,0.43502],[121.85527,0.43781]]],[[[121.85299,0.43683],[121.85189,0.43635],[121.85398,0.43387],[121.85299,0.43683]]],[[[121.85274,0.43543],[121.85121,0.43649],[121.85358,0.43456],[121.85274,0.43543]]],[[[121.85847,0.4339],[121.85537,0.43668],[121.85465,0.43425],[121.85636,0.43352],[121.85645,0.43174],[121.85823,0.43193],[121.85847,0.4339]]],[[[121.84895,0.42711],[121.85085,0.42632],[121.85385,0.43319],[121.85108,0.43652],[121.84843,0.43496],[121.84895,0.42711]]]]},"properties":{"KECAMATAN":"PATILANGGIO","DESA":"MANAWA","ID":85}},
{"type":"Feature","geometry":{"type":"Polygon","coordinates":[[[121.95785,0.90749],[121.95357,0.90894],[121.9488,0.91414],[121.94734,0.91863],[121.94379,0.91994],[121.93769,0.92822],[121.93216,0.9295],[121.92665,0.92762],[121.92146,0.92807],[121.91732,0.93544],[121.91548,0.94305],[121.90215,0.9636],[121.89891,0.96437],[121.89533,0.96766],[121.88828,0.97646],[121.87852,0.98019],[121.87604,0.9829],[121.8673,0.98635],[121.86221,0.99068],[121.85265,0.99267],[121.84991,0.9919],[121.84642,0.9855],[121.84847,0.9796],[121.83734,0.97388],[121.83032,0.96065],[121.82771,0.95998],[121.82108,0.96174],[121.81319,0.95115],[121.80411,0.94999],[121.81764,0.9396],[121.82502,0.93616],[121.83295,0.93342],[121.85509,0.93122],[121.86588,0.9249],[121.8775,0.91046],[121.87914,0.90468],[121.87525,0.90179],[121.86514,0.89904],[121.86501,0.88996],[121.86856,0.878],[121.88189,0.86301],[121.89064,0.86232],[121.90075,0.86632],[121.90772,0.86233],[121.90594,0.85366],[121.90321,0.85009],[121.89774,0.8494],[121.88722,0.85187],[121.87916,0.84843],[121.87821,0.84554],[121.88094,0.84045],[121.88074,0.83591],[121.87896,0.8322],[121.86626,0.81981],[121.86489,0.80592],[121.86353,0.80386],[121.85116,0.79794],[121.85247,0.7824],[121.84796,0.76768],[121.84933,0.76452],[121.85343,0.76245],[121.85411,0.75269],[121.85316,0.75104],[121.84196,0.74732],[121.8384,0.74264],[121.83786,0.73439],[121.84005,0.72545],[121.83406,0.70788],[121.83565,0.69951],[121.83277,0.69816],[121.8352,0.69681],[121.83251,0.69613],[121.83442,0.69124],[121.83355,0.68636],[121.8364,0.68399],[121.83879,0.65396],[121.84395,0.65739],[121.87064,0.66103],[121.87993,0.66016],[121.88802,0.66299],[121.88717,0.66677],[121.89182,0.6731],[121.89552,0.67378],[121.89543,0.66764],[121.8994,0.67127],[121.90236,0.67914],[121.90937,0.68193],[121.908,0.68795],[121.91315,0.68807],[121.90972,0.69461],[121.91158,0.69621],[121.91414,0.69354],[121.9129,0.70075],[121.91418,0.70505],[121.91728,0.70855],[121.92252,0.70959],[121.92493,0.71273],[121.9294,0.71466],[121.92961,0.71788],[121.93812,0.71908],[121.93914,0.72163],[121.94295,0.72031],[121.94493,0.72191],[121.94743,0.72102],[121.95348,0.72532],[121.95245,0.72139],[121.95812,0.72532],[121.96125,0.724],[121.96487,0.72557],[121.97015,0.72504],[121.97083,0.72424],[121.97088,0.72419],[121.97256,0.72474],[121.97152,0.72953],[121.97425,0.73183],[121.97117,0.73775],[121.97335,0.74006],[121.97502,0.74598],[121.97461,0.75752],[121.97304,0.76002],[121.97423,0.76408],[121.97107,0.76569],[121.96905,0.76257],[121.96708,0.76371],[121.96403,0.76892],[121.9655,0.77608],[121.96452,0.78055],[121.96276,0.77936],[121.95862,0.77972],[121.95768,0.78373],[121.95541,0.778],[121.95225,0.77816],[121.9494,0.78107],[121.94945,0.78471],[121.94042,0.78735],[121.93949,0.79198],[121.93504,0.7938],[121.93486,0.79924],[121.92798,0.8047],[121.92689,0.80876],[121.92901,0.81168],[121.92644,0.81563],[121.92838,0.82256],[121.93173,0.82277],[121.93312,0.82495],[121.93651,0.82385],[121.93455,0.8256],[121.93611,0.82766],[121.93432,0.83471],[121.93673,0.83561],[121.93719,0.83981],[121.94124,0.83757],[121.94106,0.83994],[121.94283,0.83951],[121.94396,0.84205],[121.93848,0.84656],[121.93525,0.84724],[121.9343,0.84979],[121.92982,0.85031],[121.93105,0.85276],[121.93474,0.85267],[121.93545,0.85534],[121.93801,0.85455],[121.93767,0.85801],[121.93255,0.86074],[121.93796,0.86185],[121.93823,0.86382],[121.93573,0.86434],[121.93826,0.86762],[121.93555,0.86857],[121.93215,0.87483],[121.92324,0.87529],[121.92069,0.88037],[121.92398,0.88685],[121.92769,0.89044],[121.94022,0.895],[121.95785,0.90749]]]},"properties":{"KECAMATAN":"TALUDITI","DESA":"PUNCAK JAYA","ID":148}},
{"type":"Feature","geometry":{"type":"Polygon","coordinates":[[[121.83225,0.64614],[121.83879,0.65396],[121.8364,0.68399],[121.83355,0.68636],[121.83442,0.69124],[121.83251,0.69613],[121.8352,0.69681],[121.83277,0.69816],[121.83565,0.69951],[121.83406,0.70788],[121.84005,0.72545],[121.83758,0.73879],[121.8384,0.74264],[121.84196,0.74732],[121.85316,0.75104],[121.85411,0.75269],[121.85343,0.76245],[121.84933,0.76452],[121.84796,0.76768],[121.85247,0.7824],[121.85116,0.79794],[121.86353,0.80386],[121.86489,0.80592],[121.86626,0.81981],[121.87896,0.8322],[121.88074,0.83591],[121.88094,0.84045],[121.87821,0.84554],[121.87916,0.84843],[121.88722,0.85187],[121.89774,0.8494],[121.90321,0.85009],[121.90594,0.85366],[121.90772,0.86233],[121.90075,0.86632],[121.89064,0.86232],[121.88189,0.86301],[121.86856,0.878],[121.86501,0.88996],[121.86514,0.89904],[121.87525,0.90179],[121.87914,0.90468],[121.8775,0.91046],[121.86588,0.9249],[121.85509,0.93122],[121.83295,0.93342],[121.82502,0.93616],[121.81764,0.9396],[121.80411,0.94999],[121.79395,0.94794],[121.78569,0.94003],[121.78008,0.93948],[121.77387,0.93634],[121.77093,0.9367],[121.76185,0.93238],[121.7606,0.92181],[121.75768,0.91322],[121.75158,0.90561],[121.74989,0.87246],[121.75003,0.87134],[121.77796,0.86489],[121.78554,0.86023],[121.79111,0.85113],[121.79778,0.84651],[121.80029,0.84105],[121.79945,0.83812],[121.78679,0.82641],[121.7863,0.81642],[121.78906,0.81051],[121.79981,0.80128],[121.80506,0.79878],[121.80686,0.79502],[121.80673,0.78931],[121.81448,0.77873],[121.81351,0.77372],[121.80563,0.76383],[121.80357,0.75047],[121.80097,0.74806],[121.80196,0.74428],[121.80083,0.73922],[121.80498,0.7331],[121.81047,0.72828],[121.81357,0.72811],[121.8126,0.72579],[121.81481,0.72445],[121.81534,0.71902],[121.81118,0.71305],[121.79803,0.70247],[121.79717,0.69943],[121.79911,0.6966],[121.7955,0.67948],[121.79094,0.67934],[121.78792,0.67687],[121.78892,0.64405],[121.82174,0.64784],[121.82616,0.65069],[121.82935,0.64946],[121.82925,0.64614],[121.83225,0.64614]]]},"properties":{"KECAMATAN":"TALUDITI","DESA":"MEKARTI JAYA","ID":149}},
{"type":"Feature","geometry":{"type":"Polygon","coordinates":[[[121.78892,0.64405],[121.78792,0.67687],[121.79094,0.67934],[121.7955,0.67948],[121.79911,0.6966],[121.79717,0.69943],[121.79803,0.70247],[121.81118,0.71305],[121.81534,0.71902],[121.81481,0.72445],[121.8126,0.72579],[121.81357,0.72811],[121.81047,0.72828],[121.80498,0.7331],[121.80083,0.73922],[121.80196,0.74428],[121.80097,0.74806],[121.80357,0.75047],[121.80563,0.76383],[121.81351,0.77372],[121.81448,0.77873],[121.80673,0.78931],[121.80686,0.79502],[121.80506,0.79878],[121.79981,0.80128],[121.78906,0.81051],[121.7863,0.81642],[121.78679,0.82641],[121.79945,0.83812],[121.80029,0.84105],[121.79778,0.84651],[121.79111,0.85113],[121.78554,0.86023],[121.77796,0.86489],[121.75003,0.87134],[121.74989,0.87246],[121.75003,0.87134],[121.75038,0.86854],[121.75257,0.8624],[121.75267,0.85162],[121.72385,0.82972],[121.72169,0.82393],[121.72289,0.82032],[121.72792,0.81766],[121.72984,0.81236],[121.73584,0.80753],[121.7368,0.80488],[121.73704,0.79378],[121.73488,0.78919],[121.73464,0.7834],[121.73752,0.77979],[121.74088,0.7781],[121.74423,0.77834],[121.75119,0.77448],[121.74975,0.76893],[121.74615,0.76579],[121.74639,0.76386],[121.75119,0.75904],[121.75147,0.753],[121.74586,0.74478],[121.74722,0.73509],[121.74545,0.72889],[121.73922,0.71995],[121.74022,0.7015],[121.73541,0.69769],[121.72796,0.68536],[121.72701,0.68093],[121.73038,0.67823],[121.73306,0.67223],[121.73539,0.67171],[121.73764,0.6668],[121.74143,0.6642],[121.74174,0.65957],[121.74408,0.65589],[121.74767,0.65424],[121.75304,0.64373],[121.75452,0.64374],[121.75725,0.64774],[121.76091,0.64766],[121.76154,0.64327],[121.75646,0.63956],[121.75597,0.63752],[121.76111,0.635],[121.76119,0.63249],[121.7642,0.63412],[121.76714,0.6296],[121.76979,0.62909],[121.77052,0.62265],[121.77398,0.62317],[121.77138,0.60902],[121.78468,0.61103],[121.78843,0.61437],[121.78887,0.61753],[121.78892,0.64405]]]},"properties":{"KECAMATAN":"TALUDITI","DESA":"MALANGO","ID":150}},
{"type":"Feature","geometry":{"type":"Polygon","coordinates":[[[121.8994,0.67127],[121.89543,0.66764],[121.89552,0.67378],[121.89182,0.6731],[121.88717,0.66677],[121.88802,0.66299],[121.87993,0.66016],[121.87064,0.66103],[121.84395,0.65739],[121.83879,0.65396],[121.83225,0.64614],[121.8366,0.64154],[121.90588,0.64128],[121.90852,0.6453],[121.8994,0.67127]]]},"properties":{"KECAMATAN":"TALUDITI","DESA":"KALIMAS","ID":151}},
{"type":"Feature","geometry":{"type":"Polygon","coordinates":[[[121.83225,0.64614],[121.82925,0.64614],[121.82935,0.64946],[121.82616,0.65069],[121.82174,0.64784],[121.78892,0.64405],[121.78887,0.61753],[121.80003,0.62579],[121.8119,0.62386],[121.8427,0.61392],[121.84107,0.63146],[121.83858,0.63954],[121.83225,0.64614]]]},"properties":{"KECAMATAN":"TALUDITI","DESA":"PANCA KARSA II","ID":152}},
{"type":"Feature","geometry":{"type":"Polygon","coordinates":[[[121.90588,0.64128],[121.8366,0.64154],[121.83858,0.63954],[121.84107,0.63146],[121.8427,0.61392],[121.85898,0.60536],[121.89681,0.63171],[121.90204,0.63723],[121.90588,0.64128]]]},"properties":{"KECAMATAN":"TALUDITI","DESA":"TIRTO ASRI","ID":153}},
{"type":"Feature","geometry":{"type":"Polygon","coordinates":[[[121.85898,0.60536],[121.8427,0.61392],[121.8119,0.62386],[121.80003,0.62579],[121.78878,0.61744],[121.78843,0.61437],[121.78468,0.61103],[121.76819,0.60871],[121.76771,0.59711],[121.77315,0.59767],[121.77846,0.59259],[121.78445,0.59049],[121.78634,0.59143],[121.78981,0.59012],[121.79115,0.59273],[121.80879,0.58764],[121.80912,0.58708],[121.82861,0.58641],[121.83971,0.59041],[121.85898,0.60536]]]},"properties":{"KECAMATAN":"TALUDITI","DESA":"PANCA KARSA I","ID":154}},
{"type":"Feature","geometry":{"type":"Polygon","coordinates":[[[122.03438,0.52234],[122.03243,0.53822],[122.03027,0.54128],[122.02807,0.54065],[122.02755,0.53868],[122.02167,0.53647],[122.02667,0.52884],[122.02547,0.52428],[122.02125,0.52449],[122.02017,0.52239],[122.01839,0.52219],[122.01583,0.51732],[122.01669,0.51328],[122.01462,0.50899],[122.01632,0.50263],[122.01522,0.50028],[122.00948,0.49072],[122.00592,0.49148],[122.00777,0.48141],[122.00817,0.46463],[122.01009,0.46416],[122.01884,0.46795],[122.02853,0.46741],[122.04168,0.47411],[122.04108,0.4875],[122.0381,0.50261],[122.03438,0.52234]]]},"properties":{"KECAMATAN":"PAGUAT","DESA":"LIBUO","ID":63}},
{"type":"Feature","geometry":{"type":"Polygon","coordinates":[[[122.09134,0.52249],[122.03438,0.52234],[122.0381,0.50261],[122.065,0.49877],[122.0731,0.49962],[122.08178,0.5127],[122.08231,0.51477],[122.08017,0.51539],[122.08031,0.51701],[122.08537,0.52065],[122.09138,0.52082],[122.09203,0.52251],[122.09134,0.52249]]]},"properties":{"KECAMATAN":"PAGUAT","DESA":"SOGINTI","ID":64}},
{"type":"Feature","geometry":{"type":"Polygon","coordinates":[[[122.08727,0.50051],[122.09911,0.50006],[122.0989,0.50333],[122.10529,0.50541],[122.12188,0.50456],[122.12466,0.52298],[122.09309,0.52255],[122.09315,0.52118],[122.10045,0.51905],[122.1023,0.51589],[122.09606,0.51521],[122.09252,0.51043],[122.08814,0.50964],[122.09287,0.50213],[122.08727,0.50051]]]},"properties":{"KECAMATAN":"PAGUAT","DESA":"MOLAMAHU","ID":65}},
{"type":"Feature","geometry":{"type":"Polygon","coordinates":[[[122.08727,0.50051],[122.09287,0.50213],[122.08814,0.50964],[122.09252,0.51043],[122.09606,0.51521],[122.1023,0.51589],[122.10045,0.51905],[122.09315,0.52118],[122.09309,0.52255],[122.09203,0.52251],[122.09138,0.52082],[122.08537,0.52065],[122.08031,0.51701],[122.08017,0.51539],[122.08231,0.51477],[122.08178,0.5127],[122.0731,0.49962],[122.08727,0.50051]]]},"properties":{"KECAMATAN":"PAGUAT","DESA":"KEMIRI","ID":66}},
{"type":"Feature","geometry":{"type":"Polygon","coordinates":[[[122.07422,0.49945],[122.065,0.49877],[122.0381,0.50261],[122.03969,0.49279],[122.05626,0.49396],[122.07246,0.49605],[122.07422,0.49945]]]},"properties":{"KECAMATAN":"PAGUAT","DESA":"SIPAYO","ID":67}},
{"type":"Feature","geometry":{"type":"MultiPolygon","coordinates":[[[[122.11439,0.49335],[122.11199,0.4958],[122.11146,0.49318],[122.11439,0.49335]]],[[[122.09911,0.50006],[122.07422,0.49945],[122.07246,0.49605],[122.07369,0.49625],[122.07491,0.49319],[122.07695,0.49319],[122.07578,0.48916],[122.10124,0.4926],[122.10238,0.49266],[122.10422,0.49277],[122.1078,0.49681],[122.10635,0.49884],[122.10406,0.49491],[122.10502,0.49678],[122.10335,0.49773],[122.10104,0.49812],[122.09935,0.49641],[122.10064,0.50018],[122.09911,0.50006]]],[[[122.11334,0.50114],[122.11372,0.49907],[122.11682,0.5014],[122.11334,0.50114]]],[[[122.12025,0.50166],[122.11764,0.49779],[122.12096,0.49437],[122.12145,0.50175],[122.12025,0.50166]]]]},"properties":{"KECAMATAN":"PAGUAT","DESA":"BUNUYO","ID":68}},
{"type":"Feature","geometry":{"type":"Polygon","coordinates":[[[122.07578,0.48916],[122.07695,0.49319],[122.07491,0.49319],[122.07369,0.49625],[122.07246,0.49605],[122.05626,0.49396],[122.06177,0.49063],[122.06199,0.48755],[122.07578,0.48916]]]},"properties":{"KECAMATAN":"PAGUAT","DESA":"SIDUAN","ID":69}},
{"type":"Feature","geometry":{"type":"Polygon","coordinates":[[[122.06199,0.48755],[122.06177,0.49063],[122.05626,0.49396],[122.03969,0.49279],[122.04168,0.47411],[122.04869,0.47688],[122.06433,0.4792],[122.06199,0.48755]]]},"properties":{"KECAMATAN":"PAGUAT","DESA":"BUHUJAYA","ID":70}},
{"type":"Feature","geometry":{"type":"Polygon","coordinates":[[[121.99002,0.47016],[121.97978,0.46479],[121.9823,0.45381],[121.98706,0.4608],[121.99249,0.45895],[121.99968,0.45921],[122.00273,0.46324],[122.00836,0.46463],[122.00592,0.49148],[122.00407,0.49207],[121.99801,0.48687],[121.99694,0.47648],[121.99756,0.47579],[121.99857,0.47345],[121.99002,0.47016]]]},"properties":{"KECAMATAN":"PAGUAT","DESA":"MALEO","ID":71}},
{"type":"Feature","geometry":{"type":"Polygon","coordinates":[[[122.07657,0.48429],[122.07578,0.48916],[122.06199,0.48755],[122.06433,0.4792],[122.07647,0.47724],[122.07657,0.48366],[122.07657,0.48429]]]},"properties":{"KECAMATAN":"PAGUAT","DESA":"PENTADU","ID":72}},
{"type":"Feature","geometry":{"type":"Polygon","coordinates":[[[121.97391,0.48594],[121.98084,0.49142],[121.97843,0.49879],[121.97437,0.50019],[121.96262,0.50013],[121.96077,0.49908],[121.95844,0.49313],[121.9554,0.49169],[121.95775,0.48155],[121.97391,0.48594]]]},"properties":{"KECAMATAN":"MARISA","DESA":"BULANGITA","ID":46}},
{"type":"Feature","geometry":{"type":"Polygon","coordinates":[[[121.9532,0.49206],[121.93917,0.49733],[121.93846,0.49662],[121.93814,0.49629],[121.93704,0.49177],[121.9351,0.48745],[121.93574,0.4856],[121.93966,0.48424],[121.93997,0.48105],[121.93983,0.48098],[121.93955,0.4804],[121.93639,0.4785],[121.93766,0.47538],[121.93778,0.47539],[121.9377,0.47498],[121.94614,0.47363],[121.94913,0.47676],[121.9532,0.49206]]]},"properties":{"KECAMATAN":"MARISA","DESA":"BOTUBILOTAHU IND","ID":47}},
{"type":"Feature","geometry":{"type":"Polygon","coordinates":[[[121.9554,0.49169],[121.9532,0.49206],[121.94913,0.47676],[121.94614,0.47363],[121.94502,0.46599],[121.96206,0.46719],[121.96225,0.47497],[121.96612,0.47653],[121.96892,0.47518],[121.96984,0.47139],[121.97337,0.46817],[121.97488,0.47186],[121.99002,0.47016],[121.99857,0.47345],[121.99756,0.47579],[121.99694,0.47648],[121.99687,0.47655],[121.99673,0.47671],[121.99086,0.48401],[121.98756,0.48595],[121.97391,0.48594],[121.95775,0.48155],[121.9554,0.49169]]]},"properties":{"KECAMATAN":"MARISA","DESA":"TERATAI","ID":48}},
{"type":"Feature","geometry":{"type":"MultiPolygon","coordinates":[[[[121.9454,0.45632],[121.9695,0.45737],[121.9741,0.45951],[121.97947,0.45226],[121.9823,0.45381],[121.97978,0.46479],[121.99002,0.47016],[121.97488,0.47186],[121.97337,0.46817],[121.96984,0.47139],[121.96892,0.47518],[121.96612,0.47653],[121.96225,0.47497],[121.96206,0.46719],[121.94271,0.46594],[121.94484,0.46229],[121.9454,0.45632]]],[[[121.97786,0.44963],[121.97767,0.45184],[121.97508,0.45299],[121.97594,0.45037],[121.97786,0.44963]]],[[[121.98283,0.44311],[121.98389,0.44755],[121.97972,0.44865],[121.98283,0.44311]]]]},"properties":{"KECAMATAN":"MARISA","DESA":"PALOPO","ID":49}},
{"type":"Feature","geometry":{"type":"Polygon","coordinates":[[[121.94614,0.47363],[121.9377,0.47498],[121.93767,0.47484],[121.93725,0.47228],[121.9346,0.47209],[121.9342,0.46768],[121.94502,0.46599],[121.94614,0.47363]]]},"properties":{"KECAMATAN":"MARISA","DESA":"MARISA UTARA","ID":50}},
{"type":"Feature","geometry":{"type":"Polygon","coordinates":[[[121.9454,0.45632],[121.94484,0.46229],[121.94271,0.46594],[121.93413,0.46749],[121.93258,0.45731],[121.93116,0.45667],[121.93341,0.45479],[121.93742,0.45494],[121.9454,0.45632]]]},"properties":{"KECAMATAN":"MARISA","DESA":"MARISA SELATAN","ID":51}},
{"type":"Feature","geometry":{"type":"Polygon","coordinates":[[[121.90101,0.51178],[121.88944,0.51352],[121.88783,0.50625],[121.8884,0.50161],[121.89126,0.50076],[121.89157,0.49935],[121.88817,0.49554],[121.88654,0.48689],[121.89284,0.48834],[121.89536,0.49206],[121.8972,0.50296],[121.902,0.51149],[121.90101,0.51178]]]},"properties":{"KECAMATAN":"DUHIADAA","DESA":"MEKARJAYA","ID":24}},
{"type":"Feature","geometry":{"type":"Polygon","coordinates":[[[121.90247,0.51136],[121.902,0.51149],[121.8973,0.5033],[121.89536,0.49206],[121.89284,0.48834],[121.88938,0.48666],[121.89126,0.48418],[121.8893,0.47148],[121.89084,0.46138],[121.89421,0.45568],[121.90113,0.45251],[121.90107,0.46002],[121.89834,0.46204],[121.8985,0.46471],[121.89713,0.46586],[121.89861,0.47668],[121.89978,0.48558],[121.90352,0.48979],[121.90774,0.48773],[121.91181,0.49718],[121.91162,0.50729],[121.90953,0.50704],[121.90247,0.51136]]]},"properties":{"KECAMATAN":"DUHIADAA","DESA":"PADENGO","ID":25}},
{"type":"Feature","geometry":{"type":"Polygon","coordinates":[[[121.91625,0.50482],[121.91356,0.50774],[121.91162,0.50729],[121.91181,0.49718],[121.90774,0.48773],[121.90352,0.48979],[121.89978,0.48558],[121.89861,0.47668],[121.90307,0.47718],[121.91249,0.48515],[121.91577,0.48186],[121.92214,0.4863],[121.92414,0.48808],[121.92436,0.48824],[121.92671,0.49375],[121.92691,0.49468],[121.91625,0.50482]]]},"properties":{"KECAMATAN":"DUHIADAA","DESA":"DUHIADAA","ID":26}},
{"type":"Feature","geometry":{"type":"Polygon","coordinates":[[[121.88938,0.48666],[121.88654,0.48675],[121.88647,0.48541],[121.88972,0.48284],[121.88433,0.47975],[121.88363,0.47695],[121.88081,0.47666],[121.88193,0.47073],[121.87815,0.46998],[121.87972,0.46657],[121.87937,0.46325],[121.88158,0.46289],[121.88059,0.45915],[121.87585,0.45926],[121.8773,0.45614],[121.87648,0.45315],[121.88155,0.4375],[121.8997,0.4436],[121.91093,0.44264],[121.90456,0.44874],[121.90461,0.4505],[121.90113,0.45251],[121.89421,0.45568],[121.89084,0.46138],[121.8893,0.47148],[121.89126,0.48418],[121.88938,0.48666]]]},"properties":{"KECAMATAN":"DUHIADAA","DESA":"MOOTILANGO","ID":27}},
{"type":"Feature","geometry":{"type":"MultiPolygon","coordinates":[[[[121.92105,0.44435],[121.91933,0.44419],[121.92133,0.44328],[121.92105,0.44435]]],[[[121.92214,0.4863],[121.91577,0.48186],[121.91249,0.48515],[121.90307,0.47718],[121.89861,0.47668],[121.89713,0.46586],[121.8985,0.46471],[121.89834,0.46204],[121.90107,0.46002],[121.90113,0.45251],[121.90461,0.4505],[121.90456,0.44874],[121.91093,0.44264],[121.90937,0.44587],[121.914,0.44225],[121.91683,0.4467],[121.92018,0.44772],[121.9189,0.45582],[121.91699,0.45675],[121.91494,0.46304],[121.91606,0.46737],[121.92266,0.46829],[121.92354,0.47432],[121.92361,0.47746],[121.92602,0.47979],[121.92214,0.4863]]]]},"properties":{"KECAMATAN":"DUHIADAA","DESA":"BUNTULIA BARAT","ID":28}},
{"type":"Feature","geometry":{"type":"Polygon","coordinates":[[[121.93766,0.47538],[121.92602,0.47979],[121.92361,0.47746],[121.92354,0.47432],[121.9346,0.47209],[121.93725,0.47228],[121.93767,0.47484],[121.9377,0.47498],[121.93778,0.47539],[121.93766,0.47538]]]},"properties":{"KECAMATAN":"DUHIADAA","DESA":"BUNTULIA JAYA","ID":29}},
{"type":"Feature","geometry":{"type":"Polygon","coordinates":[[[121.9346,0.47209],[121.92354,0.47432],[121.92266,0.46829],[121.93394,0.46721],[121.9342,0.46768],[121.9346,0.47209]]]},"properties":{"KECAMATAN":"DUHIADAA","DESA":"BUNTULIA SELATAN","ID":30}},
{"type":"Feature","geometry":{"type":"Polygon","coordinates":[[[121.93394,0.46721],[121.92266,0.46829],[121.91606,0.46737],[121.91494,0.46304],[121.91699,0.45675],[121.9189,0.45582],[121.92018,0.44772],[121.92373,0.44934],[121.92241,0.44642],[121.92689,0.44599],[121.92105,0.44435],[121.92133,0.44328],[121.93067,0.44685],[121.93703,0.44371],[121.93342,0.45478],[121.93116,0.45667],[121.93258,0.45731],[121.93394,0.46721]]]},"properties":{"KECAMATAN":"DUHIADAA","DESA":"BULILI","ID":31}},
{"type":"Feature","geometry":{"type":"Polygon","coordinates":[[[122.12724,0.5698],[122.12685,0.66698],[122.12176,0.67759],[122.11521,0.6999],[122.11048,0.73648],[122.10581,0.79845],[122.10064,0.83209],[122.10308,0.84922],[122.10135,0.90181],[122.09626,0.9052],[122.0852,0.90727],[122.07694,0.90385],[122.07288,0.90474],[122.0629,0.901],[122.05582,0.90015],[122.0342,0.88604],[122.02149,0.88721],[122.02219,0.88647],[122.02484,0.88082],[122.0246,0.87374],[122.02899,0.86968],[122.02952,0.86197],[122.03481,0.85629],[122.0371,0.84635],[122.0364,0.8444],[122.03258,0.84388],[122.03609,0.83948],[122.03778,0.82938],[122.0367,0.82525],[122.03231,0.8215],[122.03218,0.80613],[122.03355,0.80477],[122.03666,0.80584],[122.03919,0.8049],[122.04316,0.79783],[122.04645,0.79594],[122.04719,0.79178],[122.05041,0.7922],[122.05156,0.78903],[122.04977,0.78221],[122.05121,0.77773],[122.04891,0.76863],[122.05327,0.75731],[122.04368,0.75133],[122.04249,0.74161],[122.0386,0.73608],[122.0423,0.72945],[122.04222,0.71742],[122.04508,0.71358],[122.04533,0.71051],[122.0438,0.70703],[122.03202,0.69803],[122.03514,0.69068],[122.03451,0.68465],[122.03754,0.6787],[122.03561,0.67604],[122.03169,0.66212],[122.04363,0.64903],[122.04537,0.64321],[122.04333,0.63996],[122.03242,0.63157],[122.02689,0.61978],[122.03186,0.6042],[122.03075,0.60231],[122.03291,0.59879],[122.03506,0.59876],[122.03959,0.59202],[122.03837,0.58936],[122.03972,0.58734],[122.03904,0.58154],[122.04119,0.57924],[122.03941,0.57235],[122.04067,0.57096],[122.04073,0.57046],[122.07298,0.57134],[122.10396,0.5701],[122.12724,0.5698]]]},"properties":{"KECAMATAN":"DENGILO","DESA":"KARYA BARU","ID":19}},
{"type":"Feature","geometry":{"type":"Polygon","coordinates":[[[122.10396,0.5701],[122.07298,0.57134],[122.04073,0.57046],[122.04073,0.57041],[122.03972,0.5687],[122.0426,0.56191],[122.04138,0.55961],[122.04279,0.55711],[122.04046,0.55482],[122.03951,0.55677],[122.03807,0.55257],[122.03344,0.55135],[122.03384,0.54872],[122.03181,0.54863],[122.03037,0.54638],[122.03114,0.54428],[122.02875,0.54327],[122.03027,0.54128],[122.03243,0.53822],[122.03438,0.52234],[122.09134,0.52249],[122.09345,0.53499],[122.09719,0.53515],[122.09855,0.54345],[122.10031,0.54355],[122.09865,0.54492],[122.09941,0.5476],[122.10282,0.55267],[122.10559,0.55216],[122.10624,0.55393],[122.10127,0.56049],[122.10222,0.56509],[122.10503,0.56646],[122.10396,0.5701]]]},"properties":{"KECAMATAN":"DENGILO","DESA":"POPAYA","ID":20}},
{"type":"Feature","geometry":{"type":"Polygon","coordinates":[[[122.12724,0.5698],[122.10396,0.5701],[122.10503,0.56646],[122.10222,0.56509],[122.10127,0.56049],[122.10624,0.55393],[122.10559,0.55216],[122.10282,0.55267],[122.09941,0.5476],[122.09865,0.54492],[122.10031,0.54355],[122.09855,0.54345],[122.09719,0.53515],[122.10071,0.5353],[122.10599,0.54409],[122.11344,0.54446],[122.11874,0.54286],[122.11969,0.53551],[122.12662,0.53594],[122.12724,0.5698]]]},"properties":{"KECAMATAN":"DENGILO","DESA":"PADENGO","ID":21}},
{"type":"Feature","geometry":{"type":"Polygon","coordinates":[[[122.11969,0.53551],[122.11874,0.54286],[122.11344,0.54446],[122.10599,0.54409],[122.10071,0.5353],[122.11073,0.53346],[122.11969,0.53551]]]},"properties":{"KECAMATAN":"DENGILO","DESA":"KARANGETANG","ID":22}},
{"type":"Feature","geometry":{"type":"Polygon","coordinates":[[[122.12662,0.53594],[122.11969,0.53551],[122.11073,0.53346],[122.10071,0.5353],[122.09719,0.53515],[122.09345,0.53499],[122.09134,0.52249],[122.09203,0.52251],[122.09309,0.52255],[122.12466,0.52298],[122.12662,0.53594]]]},"properties":{"KECAMATAN":"DENGILO","DESA":"HUTAMOPUTI","ID":23}},
{"type":"Feature","geometry":{"type":"Polygon","coordinates":[[[122.02219,0.88647],[122.01344,0.89115],[122.00306,0.89001],[121.99771,0.89127],[121.99028,0.89661],[121.98203,0.90703],[121.97481,0.90436],[121.96499,0.90739],[121.95785,0.90749],[121.94022,0.895],[121.92769,0.89044],[121.92398,0.88685],[121.92069,0.88037],[121.92324,0.87529],[121.93215,0.87483],[121.93555,0.86857],[121.93826,0.86762],[121.93573,0.86434],[121.93823,0.86382],[121.93796,0.86185],[121.93255,0.86074],[121.93767,0.85801],[121.93801,0.85455],[121.93545,0.85534],[121.93474,0.85267],[121.93105,0.85276],[121.92982,0.85031],[121.9343,0.84979],[121.93525,0.84724],[121.93848,0.84656],[121.94396,0.84205],[121.94283,0.83951],[121.94106,0.83994],[121.94124,0.83757],[121.93719,0.83981],[121.93673,0.83561],[121.93432,0.83471],[121.93611,0.82766],[121.93455,0.8256],[121.93651,0.82385],[121.93312,0.82495],[121.93173,0.82277],[121.92838,0.82256],[121.92644,0.81563],[121.92901,0.81168],[121.92689,0.80876],[121.92798,0.8047],[121.93486,0.79924],[121.93504,0.7938],[121.93949,0.79198],[121.94042,0.78735],[121.94945,0.78471],[121.9494,0.78107],[121.95225,0.77816],[121.95541,0.778],[121.95768,0.78373],[121.95862,0.77972],[121.96276,0.77936],[121.96452,0.78055],[121.9655,0.77608],[121.96403,0.76892],[121.96708,0.76371],[121.96905,0.76257],[121.97107,0.76569],[121.97423,0.76408],[121.97304,0.76002],[121.97461,0.75752],[121.97502,0.74598],[121.97335,0.74006],[121.97117,0.73775],[121.97425,0.73183],[121.97152,0.72953],[121.97256,0.72474],[121.97088,0.72419],[121.97083,0.72424],[121.97023,0.72337],[121.97073,0.71787],[121.9685,0.70664],[121.97048,0.69565],[121.98319,0.67733],[121.9836,0.67202],[121.97622,0.66546],[121.9713,0.65526],[121.96074,0.646],[121.95846,0.63901],[121.95309,0.63615],[121.95072,0.63215],[121.94723,0.63016],[121.9494,0.61775],[121.94504,0.61376],[121.94366,0.60864],[121.9398,0.60515],[121.93505,0.59691],[121.93567,0.58845],[121.92968,0.58346],[121.93479,0.57772],[121.93828,0.57073],[121.9364,0.55717],[121.94035,0.53427],[121.93776,0.52799],[121.94449,0.52308],[121.95139,0.52134],[121.95531,0.52084],[121.95264,0.5277],[121.95413,0.5292],[121.95642,0.52882],[121.95561,0.53076],[121.95679,0.53182],[121.96019,0.52957],[121.96781,0.52858],[121.97357,0.52995],[121.97751,0.53368],[121.98331,0.53174],[121.98405,0.52921],[121.98742,0.52655],[121.99119,0.52838],[121.9937,0.52837],[121.99626,0.52615],[122.00079,0.52615],[122.00345,0.52779],[122.00496,0.52637],[122.00772,0.52785],[122.01088,0.52625],[122.01308,0.52758],[122.01839,0.52219],[122.02017,0.52239],[122.02125,0.52449],[122.02547,0.52428],[122.02667,0.52884],[122.02167,0.53647],[122.02755,0.53868],[122.02807,0.54065],[122.03027,0.54128],[122.02875,0.54327],[122.03114,0.54428],[122.03037,0.54638],[122.03181,0.54863],[122.03384,0.54872],[122.03344,0.55135],[122.03807,0.55257],[122.03951,0.55677],[122.04046,0.55482],[122.04279,0.55711],[122.04138,0.55961],[122.0426,0.56191],[122.03972,0.5687],[122.04073,0.57041],[122.04067,0.57096],[122.03941,0.57235],[122.04119,0.57924],[122.03904,0.58154],[122.03972,0.58734],[122.03837,0.58936],[122.03959,0.59202],[122.03506,0.59876],[122.03291,0.59879],[122.03075,0.60231],[122.03186,0.6042],[122.02689,0.61978],[122.03242,0.63157],[122.04333,0.63996],[122.04537,0.64321],[122.04363,0.64903],[122.03169,0.66212],[122.03561,0.67604],[122.03754,0.6787],[122.03451,0.68465],[122.03514,0.69068],[122.03202,0.69803],[122.0438,0.70703],[122.04533,0.71051],[122.04508,0.71358],[122.04222,0.71742],[122.0423,0.72945],[122.0386,0.73608],[122.04249,0.74161],[122.04368,0.75133],[122.05327,0.75731],[122.04891,0.76863],[122.05121,0.77773],[122.04977,0.78221],[122.05156,0.78903],[122.05041,0.7922],[122.04719,0.79178],[122.04645,0.79594],[122.04316,0.79783],[122.03919,0.8049],[122.03666,0.80584],[122.03355,0.80477],[122.03218,0.80613],[122.03231,0.8215],[122.0367,0.82525],[122.03778,0.82938],[122.03609,0.83948],[122.03258,0.84388],[122.0364,0.8444],[122.0371,0.84635],[122.03481,0.85629],[122.02952,0.86197],[122.02899,0.86968],[122.0246,0.87374],[122.02484,0.88082],[122.02219,0.88647]]]},"properties":{"KECAMATAN":"BUNTULIA","DESA":"HULAWA","ID":1}},
{"type":"Feature","geometry":{"type":"Polygon","coordinates":[[[122.01839,0.52219],[122.01308,0.52758],[122.01088,0.52625],[122.00772,0.52785],[122.00496,0.52637],[122.00345,0.52779],[122.00079,0.52615],[121.99626,0.52615],[121.9937,0.52837],[121.99119,0.52838],[121.98742,0.52655],[121.98405,0.52921],[121.98331,0.53174],[121.97751,0.53368],[121.97357,0.52995],[121.96781,0.52858],[121.96019,0.52957],[121.95679,0.53182],[121.95561,0.53076],[121.95642,0.52882],[121.95413,0.5292],[121.95264,0.5277],[121.95531,0.52084],[121.95139,0.52134],[121.9533,0.51949],[121.9518,0.51739],[121.94968,0.51726],[121.94775,0.51403],[121.9438,0.51436],[121.94367,0.51765],[121.9403,0.52025],[121.93873,0.51798],[121.93524,0.51962],[121.93383,0.51837],[121.93255,0.5125],[121.94064,0.51063],[121.94282,0.50822],[121.97104,0.50319],[122.00095,0.49982],[122.01522,0.50028],[122.01632,0.50263],[122.01462,0.50899],[122.01669,0.51328],[122.01583,0.51732],[122.01839,0.52219]]]},"properties":{"KECAMATAN":"BUNTULIA","DESA":"TALUDUNUYU UTARA","ID":2}},
{"type":"Feature","geometry":{"type":"Polygon","coordinates":[[[121.93383,0.51837],[121.93524,0.51962],[121.93873,0.51798],[121.9403,0.52025],[121.94367,0.51765],[121.9438,0.51436],[121.94775,0.51403],[121.94968,0.51726],[121.9518,0.51739],[121.9533,0.51949],[121.95139,0.52134],[121.94449,0.52308],[121.93776,0.52799],[121.93576,0.52397],[121.92849,0.52131],[121.93383,0.51837]]]},"properties":{"KECAMATAN":"BUNTULIA","DESA":"KARYA INDAH","ID":3}},
{"type":"Feature","geometry":{"type":"Polygon","coordinates":[[[121.93846,0.49662],[121.92883,0.5047],[121.92446,0.51183],[121.92775,0.51977],[121.93089,0.51972],[121.92849,0.52131],[121.92447,0.52036],[121.91527,0.50795],[121.91358,0.50774],[121.91625,0.50482],[121.92691,0.49468],[121.92671,0.49377],[121.92886,0.4919],[121.93704,0.49177],[121.93814,0.49629],[121.93846,0.49662]]]},"properties":{"KECAMATAN":"BUNTULIA","DESA":"BUNTULIA UTARA","ID":4}},
{"type":"Feature","geometry":{"type":"Polygon","coordinates":[[[121.93005,0.51977],[121.92775,0.51977],[121.92428,0.51249],[121.92883,0.5047],[121.93497,0.49993],[121.93485,0.49844],[121.9554,0.49169],[121.95844,0.49313],[121.96077,0.49908],[121.96262,0.50013],[121.97437,0.50019],[121.97843,0.49879],[121.98084,0.49142],[121.97391,0.48594],[121.98756,0.48595],[121.99086,0.48401],[121.99694,0.47648],[121.99801,0.48687],[122.0026,0.492],[122.00948,0.49072],[122.01522,0.50028],[122.00095,0.49982],[121.97104,0.50319],[121.94282,0.50822],[121.94064,0.51063],[121.93255,0.5125],[121.93383,0.51837],[121.93005,0.51977]]]},"properties":{"KECAMATAN":"BUNTULIA","DESA":"TALUDUYUNU","ID":5}},
{"type":"Feature","geometry":{"type":"Polygon","coordinates":[[[121.93704,0.49177],[121.92886,0.4919],[121.92671,0.49377],[121.92671,0.49375],[121.92436,0.48824],[121.92434,0.48823],[121.92639,0.4842],[121.93983,0.48098],[121.93997,0.48105],[121.93966,0.48424],[121.93574,0.4856],[121.9351,0.48745],[121.93704,0.49177]]]},"properties":{"KECAMATAN":"BUNTULIA","DESA":"BUNTULIA TENGAH","ID":6}},
{"type":"Feature","geometry":{"type":"Polygon","coordinates":[[[121.93983,0.48098],[121.92639,0.4842],[121.92434,0.48823],[121.92414,0.48808],[121.92214,0.4863],[121.92602,0.47979],[121.93766,0.47538],[121.93639,0.4785],[121.93955,0.4804],[121.93983,0.48098]]]},"properties":{"KECAMATAN":"BUNTULIA","DESA":"SIPATANA","ID":7}},
{"type":"Feature","geometry":{"type":"Polygon","coordinates":[[[121.75646,0.63956],[121.76154,0.64327],[121.76091,0.64766],[121.75725,0.64774],[121.75452,0.64374],[121.75304,0.64373],[121.74767,0.65424],[121.74408,0.65589],[121.74174,0.65957],[121.74143,0.6642],[121.73764,0.6668],[121.73539,0.67171],[121.73306,0.67223],[121.73038,0.67823],[121.72701,0.68093],[121.72796,0.68536],[121.71051,0.66982],[121.71043,0.6678],[121.71374,0.66701],[121.72455,0.65973],[121.72473,0.65209],[121.72168,0.64937],[121.72656,0.64534],[121.72752,0.64016],[121.74045,0.63543],[121.75646,0.63956]]]},"properties":{"KECAMATAN":"WANGGARASI","DESA":"LEMBAH PERMAI","ID":162}},
{"type":"Feature","geometry":{"type":"Polygon","coordinates":[[[121.42603,0.59238],[121.42539,0.59286],[121.42601,0.59237],[121.42603,0.59238]]]},"properties":{"KECAMATAN":"POPAYATO TIMUR","DESA":"MARISA","ID":122}},
{"type":"Feature","geometry":{"type":"Polygon","coordinates":[[[121.42603,0.59238],[121.42539,0.59286],[121.42601,0.59237],[121.42603,0.59238]]]},"properties":{"KECAMATAN":"POPAYATO BARAT","DESA":"BUTUNGALE","ID":116}},
{"type":"Feature","geometry":null,"properties":{"KECAMATAN":"POPAYATO BARAT","DESA":"DUDEWULO","ID":117}},
{"type":"Feature","geometry":null,"properties":{"KECAMATAN":"POPAYATO","DESA":"DAMBALO","ID":104}},
{"type":"Feature","geometry":null,"properties":{"KECAMATAN":"POPAYATO BARAT","DESA":"BUTUNGALE","ID":118}},
{"type":"Feature","geometry":null,"properties":{"KECAMATAN":"POPAYATO","DESA":"DAMBALO","ID":105}},
{"type":"Feature","geometry":null,"properties":{"KECAMATAN":"WANGGARASI","DESA":"LIMBULA","ID":163}},
{"type":"Feature","geometry":null,"properties":{"KECAMATAN":"RANDANGAN","DESA":"SIDORUKUN","ID":141}},
{"type":"Feature","geometry":null,"properties":{"KECAMATAN":"WANGGARASI","DESA":"LIMBULA","ID":164}},
{"type":"Feature","geometry":null,"properties":{"KECAMATAN":"RANDANGAN","DESA":"PELAMBANE","ID":142}},
{"type":"Feature","geometry":null,"properties":{"KECAMATAN":"RANDANGAN","DESA":"SARI MURNI","ID":143}},
{"type":"Feature","geometry":null,"properties":{"KECAMATAN":"PATILANGGIO","DESA":"ILOHELUMA","ID":86}},
{"type":"Feature","geometry":null,"properties":{"KECAMATAN":"RANDANGAN","DESA":"AYULA","ID":144}},
{"type":"Feature","geometry":null,"properties":{"KECAMATAN":"PATILANGGIO","DESA":"ILOHELUMA","ID":87}},
{"type":"Feature","geometry":null,"properties":{"KECAMATAN":"RANDANGAN","DESA":"AYULA","ID":145}},
{"type":"Feature","geometry":null,"properties":{"KECAMATAN":"PATILANGGIO","DESA":"SUKAMAKMUR","ID":88}},
{"type":"Feature","geometry":null,"properties":{"KECAMATAN":"RANDANGAN","DESA":"OMAYUWA","ID":146}},
{"type":"Feature","geometry":null,"properties":{"KECAMATAN":"PATILANGGIO","DESA":"SUKAMAKMUR","ID":89}},
{"type":"Feature","geometry":null,"properties":{"KECAMATAN":"RANDANGAN","DESA":"OMAYUWA","ID":147}},
{"type":"Feature","geometry":null,"properties":{"KECAMATAN":"PATILANGGIO","DESA":"DULOMO","ID":90}},
{"type":"Feature","geometry":null,"properties":{"KECAMATAN":"PATILANGGIO","DESA":"DUDEPO","ID":91}},
{"type":"Feature","geometry":null,"properties":{"KECAMATAN":"TALUDITI","DESA":"KALIMAS","ID":155}},
{"type":"Feature","geometry":null,"properties":{"KECAMATAN":"PATILANGGIO","DESA":"DUDEPO","ID":92}},
{"type":"Feature","geometry":null,"properties":{"KECAMATAN":"BUNTULIA","DESA":"HULAWA","ID":8}},
{"type":"Feature","geometry":null,"properties":{"KECAMATAN":"PATILANGGIO","DESA":"BALAYO","ID":93}},
{"type":"Feature","geometry":null,"properties":{"KECAMATAN":"DUHIADAA","DESA":"MEKARJAYA","ID":32}},
{"type":"Feature","geometry":null,"properties":{"KECAMATAN":"PATILANGGIO","DESA":"BALAYO","ID":94}},
{"type":"Feature","geometry":null,"properties":{"KECAMATAN":"DUHIADAA","DESA":"PADENGO","ID":33}},
{"type":"Feature","geometry":null,"properties":{"KECAMATAN":"PATILANGGIO","DESA":"BALAYO","ID":95}},
{"type":"Feature","geometry":null,"properties":{"KECAMATAN":"BUNTULIA","DESA":"BUNTULIA UTARA","ID":9}},
{"type":"Feature","geometry":null,"properties":{"KECAMATAN":"TALUDITI","DESA":"MEKARTI JAYA","ID":156}},
{"type":"Feature","geometry":null,"properties":{"KECAMATAN":"TALUDITI","DESA":"MALANGO","ID":157}},
{"type":"Feature","geometry":null,"properties":{"KECAMATAN":"PAGUAT","DESA":"LIBUO","ID":73}},
{"type":"Feature","geometry":null,"properties":{"KECAMATAN":"BUNTULIA","DESA":"TALUDUYUNU","ID":10}},
{"type":"Feature","geometry":null,"properties":{"KECAMATAN":"MARISA","DESA":"BOTUBILOTAHU IND","ID":52}},
{"type":"Feature","geometry":null,"properties":{"KECAMATAN":"DUHIADAA","DESA":"BUNTULIA JAYA","ID":34}},
{"type":"Feature","geometry":null,"properties":{"KECAMATAN":"MARISA","DESA":"BOTUBILOTAHU IND","ID":53}},
{"type":"Feature","geometry":null,"properties":{"KECAMATAN":"BUNTULIA","DESA":"BUNTULIA UTARA","ID":11}},
{"type":"Feature","geometry":null,"properties":{"KECAMATAN":"MARISA","DESA":"BOTUBILOTAHU IND","ID":54}},
{"type":"Feature","geometry":null,"properties":{"KECAMATAN":"BUNTULIA","DESA":"TALUDUYUNU","ID":12}},
{"type":"Feature","geometry":null,"properties":{"KECAMATAN":"MARISA","DESA":"BOTUBILOTAHU IND","ID":55}},
{"type":"Feature","geometry":null,"properties":{"KECAMATAN":"BUNTULIA","DESA":"SIPATANA","ID":13}},
{"type":"Feature","geometry":null,"properties":{"KECAMATAN":"MARISA","DESA":"TERATAI","ID":56}},
{"type":"Feature","geometry":null,"properties":{"KECAMATAN":"BUNTULIA","DESA":"TALUDUYUNU","ID":14}},
{"type":"Feature","geometry":null,"properties":{"KECAMATAN":"MARISA","DESA":"MARISA UTARA","ID":57}},
{"type":"Feature","geometry":null,"properties":{"KECAMATAN":"DUHIADAA","DESA":"BUNTULIA JAYA","ID":35}},
{"type":"Feature","geometry":null,"properties":{"KECAMATAN":"PAGUAT","DESA":"MALEO","ID":74}},
{"type":"Feature","geometry":null,"properties":{"KECAMATAN":"MARISA","DESA":"TERATAI","ID":58}},
{"type":"Feature","geometry":null,"properties":{"KECAMATAN":"BUNTULIA","DESA":"TALUDUYUNU","ID":15}},
{"type":"Feature","geometry":{"type":"Polygon","coordinates":[[[121.66773,0.45571],[121.66851,0.45699],[121.66582,0.45834],[121.66773,0.45571]]]},"properties":{"KECAMATAN":"WANGGARASI","DESA":"YIPILO","ID":165}},
{"type":"Feature","geometry":{"type":"Polygon","coordinates":[[[121.71243,0.56035],[121.68918,0.56012],[121.69026,0.54681],[121.70143,0.52199],[121.70651,0.51693],[121.70901,0.51818],[121.71038,0.51584],[121.71248,0.52173],[121.71583,0.52375],[121.72177,0.52181],[121.72093,0.52032],[121.71882,0.52121],[121.71898,0.51802],[121.71463,0.51512],[121.71475,0.51146],[121.71952,0.50557],[121.72783,0.50192],[121.73129,0.50186],[121.73066,0.49882],[121.73412,0.49135],[121.74709,0.47293],[121.7544,0.46531],[121.75504,0.46073],[121.76532,0.44525],[121.77561,0.44029],[121.77305,0.47026],[121.76374,0.48646],[121.75662,0.50504],[121.75637,0.50541],[121.75219,0.51034],[121.7476,0.51191],[121.74618,0.51728],[121.73666,0.52897],[121.73498,0.53465],[121.7347,0.53481],[121.73416,0.53512],[121.72022,0.544],[121.72118,0.55137],[121.72501,0.55521],[121.72433,0.55865],[121.71243,0.56035]]]},"properties":{"KECAMATAN":"WANGGARASI","DESA":"LIMBULA","ID":166}},
{"type":"Feature","geometry":{"type":"MultiPolygon","coordinates":[[[[121.68918,0.56012],[121.67261,0.5591],[121.67293,0.51961],[121.68157,0.52045],[121.68425,0.51901],[121.68291,0.51393],[121.68535,0.51306],[121.68654,0.51637],[121.68798,0.51653],[121.68909,0.51327],[121.69395,0.51996],[121.70143,0.52199],[121.69026,0.54681],[121.68918,0.56012]]],[[[121.67728,0.50656],[121.68084,0.50751],[121.68229,0.50951],[121.68101,0.51383],[121.67739,0.51578],[121.67369,0.51416],[121.67302,0.50979],[121.67397,0.50765],[121.67728,0.50656]]],[[[121.7077,0.48534],[121.70976,0.48886],[121.70716,0.49299],[121.70799,0.4977],[121.70218,0.50741],[121.69545,0.51277],[121.68415,0.51056],[121.68042,0.50393],[121.67926,0.49803],[121.68506,0.48987],[121.68929,0.48643],[121.69437,0.48469],[121.70661,0.48408],[121.7077,0.48534]]]]},"properties":{"KECAMATAN":"WANGGARASI","DESA":"WONGGARASI TIMUR","ID":167}},
{"type":"Feature","geometry":null,"properties":{"KECAMATAN":"LEMITO","DESA":"WONGGARASI TENGAH","ID":36}},
{"type":"Feature","geometry":null,"properties":{"KECAMATAN":"WANGGARASI","DESA":"YIPILO","ID":168}},
{"type":"Feature","geometry":{"type":"MultiPolygon","coordinates":[[[[121.67261,0.5591],[121.67141,0.59479],[121.67563,0.60261],[121.67635,0.61304],[121.67947,0.62031],[121.67947,0.62976],[121.67754,0.63655],[121.67552,0.63849],[121.67706,0.64845],[121.68029,0.65296],[121.67705,0.65998],[121.6768,0.66625],[121.67031,0.67981],[121.6681,0.693],[121.66296,0.69773],[121.66692,0.70017],[121.67191,0.7001],[121.67543,0.70276],[121.67154,0.70829],[121.6617,0.71378],[121.6596,0.72236],[121.66714,0.73118],[121.66564,0.73378],[121.66773,0.73698],[121.6655,0.73856],[121.6623,0.74765],[121.66523,0.74649],[121.66966,0.74876],[121.66768,0.75623],[121.66438,0.76014],[121.66502,0.76282],[121.66339,0.76416],[121.66783,0.77177],[121.66742,0.77652],[121.66978,0.78233],[121.66683,0.78973],[121.66465,0.79158],[121.66684,0.79347],[121.66628,0.7967],[121.66123,0.80128],[121.65975,0.8052],[121.65862,0.80175],[121.65662,0.80463],[121.65541,0.80258],[121.65424,0.80738],[121.65219,0.80734],[121.65154,0.81088],[121.65527,0.82074],[121.65533,0.83045],[121.65998,0.84142],[121.66058,0.84718],[121.66662,0.84866],[121.66736,0.85098],[121.66588,0.85447],[121.67343,0.85845],[121.67413,0.8633],[121.67834,0.86256],[121.68494,0.86483],[121.68956,0.86994],[121.6896,0.87352],[121.68317,0.886],[121.68169,0.89526],[121.68413,0.9005],[121.67335,0.90354],[121.66628,0.89943],[121.65867,0.89198],[121.6538,0.89135],[121.65073,0.89434],[121.64616,0.89523],[121.63796,0.8926],[121.62997,0.88752],[121.62685,0.87873],[121.6229,0.87314],[121.63157,0.86706],[121.63388,0.86335],[121.63258,0.85503],[121.62795,0.85302],[121.62365,0.85511],[121.61713,0.85402],[121.61452,0.85018],[121.61536,0.84683],[121.60585,0.84063],[121.60802,0.82107],[121.6062,0.81556],[121.60428,0.81397],[121.61931,0.80488],[121.6205,0.80186],[121.62587,0.8003],[121.62838,0.796],[121.63143,0.79412],[121.63071,0.78799],[121.63386,0.78286],[121.63477,0.77754],[121.63668,0.77589],[121.63673,0.77076],[121.63869,0.76911],[121.63627,0.76436],[121.63678,0.7617],[121.634,0.75986],[121.63304,0.75689],[121.63489,0.74931],[121.63235,0.74],[121.63432,0.7323],[121.63296,0.73081],[121.63056,0.73161],[121.6295,0.72512],[121.62575,0.72296],[121.6254,0.71549],[121.6268,0.71328],[121.62162,0.70191],[121.61093,0.69429],[121.61338,0.69022],[121.61134,0.68522],[121.61327,0.68391],[121.61378,0.68084],[121.61296,0.67843],[121.61034,0.67818],[121.60657,0.67087],[121.60872,0.67022],[121.61044,0.66694],[121.61189,0.6687],[121.61641,0.66983],[121.61563,0.66763],[121.61829,0.66694],[121.61951,0.66408],[121.62666,0.6615],[121.62765,0.6467],[121.63036,0.64279],[121.62882,0.61781],[121.62961,0.55301],[121.63088,0.54092],[121.63317,0.53748],[121.63543,0.53809],[121.63615,0.54088],[121.63387,0.54441],[121.63543,0.54502],[121.64155,0.54129],[121.63893,0.54004],[121.64141,0.53628],[121.64556,0.535],[121.64673,0.53876],[121.64867,0.53392],[121.65226,0.533],[121.65285,0.53987],[121.65446,0.54102],[121.65763,0.53617],[121.66114,0.53706],[121.65969,0.53425],[121.66061,0.5318],[121.66621,0.52916],[121.66559,0.52549],[121.66679,0.5234],[121.67293,0.51961],[121.67261,0.5591]]],[[[121.63289,0.5352],[121.63143,0.53574],[121.63169,0.53324],[121.63684,0.52466],[121.64034,0.52372],[121.64293,0.52508],[121.64239,0.5303],[121.63543,0.53545],[121.63289,0.5352]]],[[[121.64636,0.52347],[121.64719,0.52541],[121.64585,0.52686],[121.64445,0.52416],[121.64636,0.52347]]],[[[121.66247,0.51391],[121.66308,0.51575],[121.66038,0.51587],[121.66247,0.51391]]],[[[121.6617,0.5073],[121.66222,0.51102],[121.6573,0.51234],[121.65852,0.50821],[121.6617,0.5073]]],[[[121.64914,0.50619],[121.64688,0.51117],[121.64334,0.5105],[121.64547,0.50583],[121.64841,0.50506],[121.64914,0.50619]]],[[[121.64222,0.50595],[121.64219,0.50921],[121.63855,0.51029],[121.64001,0.50574],[121.64222,0.50595]]],[[[121.6581,0.50202],[121.65662,0.5035],[121.65529,0.50127],[121.65953,0.49964],[121.6581,0.50202]]],[[[121.66949,0.49209],[121.66826,0.49461],[121.66714,0.49397],[121.66954,0.48991],[121.66949,0.49209]]]]},"properties":{"KECAMATAN":"LEMITO","DESA":"SUKA DAMAI","ID":37}},
{"type":"Feature","geometry":{"type":"Polygon","coordinates":[[[121.56983,0.5697],[121.57049,0.57256],[121.5732,0.57386],[121.57029,0.5762],[121.57145,0.5868],[121.5664,0.59322],[121.56849,0.5948],[121.56573,0.59548],[121.56819,0.59751],[121.56812,0.59871],[121.56602,0.59902],[121.56625,0.60187],[121.56988,0.60831],[121.56992,0.61122],[121.5728,0.6132],[121.5696,0.61727],[121.56892,0.623],[121.56938,0.6315],[121.57119,0.63492],[121.56909,0.63583],[121.5675,0.63481],[121.5694,0.63833],[121.56615,0.64411],[121.55783,0.64535],[121.55705,0.64819],[121.549,0.64997],[121.54609,0.65225],[121.54001,0.65273],[121.53595,0.64545],[121.53916,0.64158],[121.5427,0.63057],[121.55058,0.6287],[121.55391,0.62308],[121.55208,0.6155],[121.55574,0.60465],[121.55535,0.59445],[121.56133,0.58758],[121.56375,0.55139],[121.57191,0.55083],[121.56859,0.56293],[121.56671,0.56459],[121.56983,0.5697]]]},"properties":{"KECAMATAN":"LEMITO","DESA":"KENARI","ID":38}},
{"type":"Feature","geometry":null,"properties":{"KECAMATAN":"POPAYATO TIMUR","DESA":"KELAPA LIMA","ID":123}},
{"type":"Feature","geometry":null,"properties":{"KECAMATAN":"LEMITO","DESA":"WONGGARASI BARAT","ID":39}},
{"type":"Feature","geometry":{"type":"MultiPolygon","coordinates":[[[[121.63262,0.50851],[121.62755,0.50825],[121.62814,0.50463],[121.63119,0.5057],[121.63256,0.50403],[121.63374,0.50627],[121.63262,0.50851]]],[[[121.62121,0.5121],[121.6212,0.51467],[121.61675,0.51627],[121.61728,0.51265],[121.62121,0.5121]]],[[[121.62685,0.87873],[121.62973,0.88743],[121.6274,0.88438],[121.62183,0.88163],[121.61092,0.88258],[121.60208,0.87276],[121.58713,0.87323],[121.58336,0.87158],[121.57706,0.87238],[121.57399,0.87044],[121.56698,0.87444],[121.56284,0.87376],[121.5574,0.87799],[121.54661,0.87833],[121.53822,0.87619],[121.53609,0.87456],[121.53695,0.87275],[121.5347,0.86662],[121.53592,0.8598],[121.53317,0.85317],[121.52751,0.85223],[121.52615,0.84811],[121.52354,0.84596],[121.52333,0.83697],[121.526,0.8306],[121.5326,0.82863],[121.5346,0.82466],[121.53208,0.81247],[121.53425,0.81195],[121.53445,0.80711],[121.53866,0.80261],[121.53979,0.7955],[121.53762,0.79178],[121.53672,0.78434],[121.54142,0.77365],[121.5396,0.77236],[121.54068,0.76971],[121.54271,0.76975],[121.54245,0.76552],[121.54898,0.77018],[121.5558,0.76933],[121.55677,0.77141],[121.55814,0.76893],[121.55521,0.76647],[121.55575,0.76445],[121.56137,0.76366],[121.56235,0.7613],[121.57174,0.76012],[121.57848,0.75484],[121.56754,0.74764],[121.5669,0.7434],[121.56411,0.7426],[121.56285,0.73864],[121.55657,0.73468],[121.5531,0.73411],[121.55327,0.73211],[121.54827,0.72613],[121.54871,0.72229],[121.54609,0.7193],[121.54566,0.71513],[121.5544,0.6897],[121.55865,0.69104],[121.56976,0.68477],[121.57256,0.68101],[121.57278,0.67713],[121.57955,0.67125],[121.58024,0.66717],[121.58466,0.66665],[121.58554,0.66475],[121.58391,0.66369],[121.58433,0.66099],[121.57999,0.66101],[121.57824,0.65956],[121.57561,0.65046],[121.5823,0.65235],[121.58837,0.65029],[121.59045,0.64775],[121.59141,0.64387],[121.59002,0.6385],[121.59159,0.63732],[121.59236,0.63263],[121.60633,0.61156],[121.60594,0.60102],[121.59276,0.58189],[121.58772,0.57876],[121.58579,0.57017],[121.58695,0.56627],[121.60141,0.54626],[121.60331,0.55353],[121.60239,0.54958],[121.60451,0.54666],[121.60566,0.54626],[121.60686,0.54992],[121.6083,0.54937],[121.60566,0.53954],[121.60893,0.53844],[121.61034,0.54484],[121.61421,0.54773],[121.61613,0.54699],[121.6182,0.54896],[121.61962,0.54811],[121.61976,0.53955],[121.6171,0.5236],[121.62535,0.52283],[121.6236,0.53575],[121.63169,0.53324],[121.63045,0.53745],[121.62833,0.53904],[121.63088,0.54092],[121.62961,0.55301],[121.62882,0.61781],[121.63036,0.64279],[121.62765,0.6467],[121.62666,0.6615],[121.61951,0.66408],[121.61829,0.66694],[121.61563,0.66763],[121.61641,0.66983],[121.61189,0.6687],[121.61044,0.66694],[121.60872,0.67022],[121.60657,0.67087],[121.61034,0.67818],[121.61296,0.67843],[121.61378,0.68084],[121.61327,0.68391],[121.61134,0.68522],[121.61338,0.69022],[121.61093,0.69429],[121.62162,0.70191],[121.6268,0.71328],[121.6254,0.71549],[121.62575,0.72296],[121.6295,0.72512],[121.63056,0.73161],[121.63296,0.73081],[121.63432,0.7323],[121.63235,0.74],[121.63489,0.74931],[121.63304,0.75689],[121.634,0.75986],[121.63678,0.7617],[121.63627,0.76436],[121.63869,0.76911],[121.63673,0.77076],[121.63668,0.77589],[121.63477,0.77754],[121.63386,0.78286],[121.63071,0.78799],[121.63143,0.79412],[121.62838,0.796],[121.62587,0.8003],[121.6205,0.80186],[121.61931,0.80488],[121.60428,0.81397],[121.6062,0.81556],[121.60802,0.82107],[121.60585,0.84063],[121.61536,0.84683],[121.61452,0.85018],[121.61713,0.85402],[121.62365,0.85511],[121.62795,0.85302],[121.63258,0.85503],[121.63388,0.86335],[121.63157,0.86706],[121.6229,0.87314],[121.62685,0.87873]]]]},"properties":{"KECAMATAN":"LEMITO","DESA":"WONGGARASI TENGAH","ID":40}},
{"type":"Feature","geometry":{"type":"Polygon","coordinates":[[[121.52751,0.85223],[121.51659,0.84987],[121.50653,0.84573],[121.50179,0.84608],[121.5018,0.84269],[121.49852,0.84262],[121.49419,0.83945],[121.4834,0.83951],[121.48324,0.83927],[121.48206,0.82937],[121.48398,0.82215],[121.4902,0.81325],[121.49856,0.81109],[121.50287,0.80508],[121.50837,0.788],[121.50789,0.78126],[121.50383,0.77188],[121.50503,0.76707],[121.51483,0.75769],[121.51221,0.73844],[121.50695,0.73098],[121.50639,0.72651],[121.5067,0.72358],[121.50973,0.72302],[121.51351,0.71855],[121.5104,0.70794],[121.5117,0.7029],[121.50792,0.69662],[121.50568,0.68723],[121.50032,0.68232],[121.50032,0.67941],[121.50591,0.67628],[121.50613,0.66488],[121.50904,0.65996],[121.5094,0.6596],[121.50956,0.66714],[121.51283,0.67103],[121.51271,0.677],[121.52269,0.67887],[121.52723,0.67827],[121.53218,0.67182],[121.53419,0.66431],[121.53643,0.66198],[121.53596,0.65834],[121.54001,0.65273],[121.54609,0.65225],[121.549,0.64997],[121.55705,0.64819],[121.55783,0.64535],[121.56615,0.64411],[121.5694,0.63833],[121.5675,0.63481],[121.56909,0.63583],[121.57119,0.63492],[121.56938,0.6315],[121.56892,0.623],[121.5696,0.61727],[121.5728,0.6132],[121.56992,0.61122],[121.56988,0.60831],[121.56625,0.60187],[121.56602,0.59902],[121.56812,0.59871],[121.56819,0.59751],[121.56573,0.59548],[121.56849,0.5948],[121.5664,0.59322],[121.57145,0.5868],[121.57029,0.5762],[121.5732,0.57386],[121.57049,0.57256],[121.56983,0.5697],[121.57075,0.56794],[121.56739,0.56508],[121.57107,0.56144],[121.57409,0.54346],[121.57527,0.5347],[121.58062,0.53565],[121.58108,0.53732],[121.58244,0.53572],[121.58839,0.53648],[121.59038,0.53182],[121.59232,0.53112],[121.59354,0.53324],[121.59287,0.53723],[121.59497,0.53911],[121.59784,0.53888],[121.599,0.53736],[121.59674,0.53278],[121.59781,0.52965],[121.60251,0.52736],[121.60761,0.53391],[121.60334,0.5375],[121.60177,0.54529],[121.59743,0.5452],[121.59616,0.54775],[121.59796,0.54579],[121.60141,0.54626],[121.58695,0.56627],[121.58579,0.57017],[121.58772,0.57876],[121.59276,0.58189],[121.60594,0.60102],[121.60633,0.61156],[121.59236,0.63263],[121.59159,0.63732],[121.59002,0.6385],[121.59141,0.64387],[121.59045,0.64775],[121.58837,0.65029],[121.5823,0.65235],[121.57561,0.65046],[121.57824,0.65956],[121.57999,0.66101],[121.58433,0.66099],[121.58391,0.66369],[121.58554,0.66475],[121.58466,0.66665],[121.58024,0.66717],[121.57955,0.67125],[121.57278,0.67713],[121.57256,0.68101],[121.56976,0.68477],[121.55865,0.69104],[121.5544,0.6897],[121.54566,0.71513],[121.54609,0.7193],[121.54871,0.72229],[121.54827,0.72613],[121.55327,0.73211],[121.5531,0.73411],[121.55657,0.73468],[121.56285,0.73864],[121.56411,0.7426],[121.5669,0.7434],[121.56754,0.74764],[121.57848,0.75484],[121.57174,0.76012],[121.56235,0.7613],[121.56137,0.76366],[121.55575,0.76445],[121.55521,0.76647],[121.55814,0.76893],[121.55677,0.77141],[121.5558,0.76933],[121.54898,0.77018],[121.54245,0.76552],[121.54271,0.76975],[121.54068,0.76971],[121.5396,0.77236],[121.54142,0.77365],[121.53672,0.78434],[121.53762,0.79178],[121.53979,0.7955],[121.53866,0.80261],[121.53445,0.80711],[121.53425,0.81195],[121.53208,0.81247],[121.5346,0.82466],[121.5326,0.82863],[121.526,0.8306],[121.52333,0.83697],[121.52354,0.84596],[121.52615,0.84811],[121.52751,0.85223]]]},"properties":{"KECAMATAN":"LEMITO","DESA":"WONGGARASI BARAT","ID":41}},
{"type":"Feature","geometry":{"type":"Polygon","coordinates":[[[121.57409,0.54346],[121.57107,0.56144],[121.56739,0.56508],[121.57075,0.56794],[121.56983,0.5697],[121.56671,0.56459],[121.56859,0.56293],[121.57191,0.55083],[121.56375,0.55139],[121.55847,0.55239],[121.55487,0.5551],[121.55077,0.55321],[121.55126,0.54875],[121.57226,0.54724],[121.57268,0.54345],[121.57409,0.54346]]]},"properties":{"KECAMATAN":"LEMITO","DESA":"LEMITO UTARA","ID":42}},
{"type":"Feature","geometry":{"type":"MultiPolygon","coordinates":[[[[121.56051,0.47355],[121.56429,0.48368],[121.5637,0.48554],[121.56054,0.48661],[121.55888,0.4854],[121.56206,0.48104],[121.55973,0.47772],[121.56051,0.47355]]],[[[121.58277,0.49623],[121.58523,0.50018],[121.58236,0.50152],[121.57901,0.50099],[121.57932,0.49744],[121.58277,0.49623]]],[[[121.57512,0.50884],[121.57349,0.50793],[121.57556,0.50772],[121.57512,0.50884]]],[[[121.51833,0.50663],[121.51588,0.51169],[121.51318,0.51231],[121.51833,0.50663]]],[[[121.5551,0.5171],[121.55183,0.51546],[121.55181,0.51381],[121.55588,0.51435],[121.55678,0.51606],[121.5551,0.5171]]],[[[121.52375,0.51927],[121.52074,0.52137],[121.52179,0.51882],[121.52375,0.51927]]],[[[121.52606,0.54301],[121.51819,0.54932],[121.51402,0.55547],[121.50219,0.54773],[121.49466,0.54444],[121.49689,0.53396],[121.51268,0.51286],[121.51763,0.51449],[121.51889,0.51903],[121.51832,0.52155],[121.5129,0.52504],[121.51234,0.52888],[121.51624,0.53347],[121.52215,0.53337],[121.52526,0.53137],[121.5271,0.53525],[121.52575,0.53861],[121.52242,0.53799],[121.52081,0.5358],[121.52045,0.54299],[121.52379,0.54283],[121.52363,0.54077],[121.52591,0.54005],[121.52791,0.54087],[121.52606,0.54301]]]]},"properties":{"KECAMATAN":"POPAYATO TIMUR","DESA":"MILANGODAA","ID":124}},
{"type":"Feature","geometry":{"type":"Polygon","coordinates":[[[121.4834,0.83951],[121.4811,0.8378],[121.47686,0.83757],[121.47559,0.84111],[121.47161,0.8425],[121.46684,0.84716],[121.46231,0.84494],[121.45511,0.84731],[121.44998,0.84648],[121.44468,0.84332],[121.44418,0.83725],[121.45102,0.82749],[121.45035,0.82389],[121.45741,0.81929],[121.4602,0.81921],[121.46114,0.81826],[121.46008,0.81522],[121.46417,0.81095],[121.46735,0.81039],[121.46708,0.79988],[121.46897,0.80103],[121.47128,0.7978],[121.4712,0.78879],[121.47676,0.7883],[121.47596,0.78507],[121.48202,0.78938],[121.48202,0.78759],[121.4858,0.7863],[121.48405,0.78434],[121.48575,0.78155],[121.48223,0.77975],[121.48026,0.77278],[121.47776,0.77471],[121.47691,0.77336],[121.48047,0.76776],[121.48015,0.76343],[121.48571,0.76315],[121.48393,0.76085],[121.48575,0.75633],[121.48361,0.7537],[121.4794,0.75388],[121.47786,0.75224],[121.47126,0.7531],[121.46198,0.73949],[121.46068,0.7323],[121.44782,0.71961],[121.44672,0.71058],[121.44763,0.70666],[121.45803,0.7013],[121.46011,0.69659],[121.47005,0.68679],[121.46382,0.67017],[121.47413,0.62864],[121.48229,0.62152],[121.4869,0.60973],[121.49145,0.60769],[121.49951,0.59975],[121.49928,0.58879],[121.50105,0.58929],[121.50065,0.58717],[121.50339,0.58708],[121.50393,0.58483],[121.49928,0.57231],[121.49637,0.56973],[121.49848,0.5685],[121.49852,0.56496],[121.50213,0.56185],[121.49895,0.55669],[121.50021,0.55518],[121.49874,0.55101],[121.50219,0.54773],[121.51402,0.55547],[121.51365,0.56964],[121.54047,0.57456],[121.54818,0.57359],[121.54634,0.57852],[121.54733,0.59344],[121.54529,0.5954],[121.53802,0.59595],[121.53286,0.60229],[121.53262,0.60504],[121.52815,0.60906],[121.52793,0.61264],[121.53084,0.61465],[121.53084,0.618],[121.52972,0.62113],[121.5239,0.62483],[121.52837,0.63007],[121.52815,0.64259],[121.5257,0.64617],[121.51775,0.64499],[121.51083,0.65594],[121.5106,0.6584],[121.50904,0.65996],[121.50613,0.66488],[121.50591,0.67628],[121.50032,0.67941],[121.50032,0.68232],[121.50568,0.68723],[121.50792,0.69662],[121.5117,0.7029],[121.5104,0.70794],[121.51351,0.71855],[121.50973,0.72302],[121.5067,0.72358],[121.50639,0.72651],[121.50695,0.73098],[121.51221,0.73844],[121.51483,0.75769],[121.50503,0.76707],[121.50383,0.77188],[121.50789,0.78126],[121.50837,0.788],[121.50287,0.80508],[121.49856,0.81109],[121.4902,0.81325],[121.48398,0.82215],[121.48206,0.82937],[121.48324,0.83927],[121.4834,0.83951]]]},"properties":{"KECAMATAN":"POPAYATO TIMUR","DESA":"KELAPA LIMA","ID":125}},
{"type":"Feature","geometry":{"type":"Polygon","coordinates":[[[121.54001,0.65273],[121.53596,0.65834],[121.53643,0.66198],[121.53419,0.66431],[121.53218,0.67182],[121.52723,0.67827],[121.52269,0.67887],[121.51271,0.677],[121.51283,0.67103],[121.50956,0.66714],[121.5094,0.6596],[121.5106,0.6584],[121.51083,0.65594],[121.51775,0.64499],[121.5257,0.64617],[121.52815,0.64259],[121.52837,0.63007],[121.5239,0.62483],[121.52972,0.62113],[121.53084,0.618],[121.53084,0.61465],[121.52793,0.61264],[121.52815,0.60906],[121.53262,0.60504],[121.53286,0.60229],[121.53802,0.59595],[121.54529,0.5954],[121.54733,0.59344],[121.54634,0.57852],[121.54818,0.57359],[121.54047,0.57456],[121.53906,0.54482],[121.54093,0.54412],[121.54388,0.54547],[121.54957,0.54137],[121.55303,0.5428],[121.55583,0.53705],[121.55583,0.54626],[121.55186,0.547],[121.55126,0.54875],[121.55077,0.55321],[121.55487,0.5551],[121.55847,0.55239],[121.56375,0.55139],[121.56133,0.58758],[121.55535,0.59445],[121.55574,0.60465],[121.55208,0.6155],[121.55391,0.62308],[121.55058,0.6287],[121.5427,0.63057],[121.53916,0.64158],[121.53595,0.64545],[121.54001,0.65273]]]},"properties":{"KECAMATAN":"LEMITO","DESA":"LOMULI","ID":43}},
{"type":"Feature","geometry":{"type":"MultiPolygon","coordinates":[[[[121.53776,0.53818],[121.53673,0.53902],[121.53589,0.53799],[121.53776,0.53818]]],[[[121.54047,0.57456],[121.51365,0.56964],[121.51402,0.55547],[121.51819,0.54932],[121.52606,0.54301],[121.52457,0.55032],[121.52604,0.55028],[121.52696,0.54708],[121.52836,0.54773],[121.52774,0.54937],[121.52895,0.54813],[121.52859,0.54983],[121.53035,0.5485],[121.53164,0.55444],[121.53348,0.55576],[121.53637,0.55369],[121.53301,0.54955],[121.53359,0.54686],[121.53906,0.54482],[121.54047,0.57456]]]]},"properties":{"KECAMATAN":"LEMITO","DESA":"BABALONGE","ID":44}},
{"type":"Feature","geometry":{"type":"MultiPolygon","coordinates":[[[[121.42431,0.4115],[121.42571,0.41452],[121.41949,0.41412],[121.41977,0.41256],[121.42431,0.4115]]],[[[121.44391,0.41557],[121.44759,0.41867],[121.44208,0.41805],[121.44235,0.41593],[121.44391,0.41557]]]]},"properties":{"KECAMATAN":"POPAYATO","DESA":"TOROSIAJE","ID":106}},
{"type":"Feature","geometry":null,"properties":{"KECAMATAN":"TALUDITI","DESA":"PUNCAK JAYA","ID":158}},
{"type":"Feature","geometry":null,"properties":{"KECAMATAN":"TALUDITI","DESA":"PUNCAK JAYA","ID":159}},
{"type":"Feature","geometry":null,"properties":{"KECAMATAN":"BUNTULIA","DESA":"HULAWA","ID":16}},
{"type":"Feature","geometry":null,"properties":{"KECAMATAN":"BUNTULIA","DESA":"HULAWA","ID":17}},
{"type":"Feature","geometry":null,"properties":{"KECAMATAN":"PAGUAT","DESA":"MALEO","ID":75}},
{"type":"Feature","geometry":null,"properties":{"KECAMATAN":"MARISA","DESA":"TERATAI","ID":59}},
{"type":"Feature","geometry":{"type":"MultiPolygon","coordinates":[[[[121.45296,0.48519],[121.44547,0.49026],[121.44446,0.48743],[121.44317,0.48767],[121.44472,0.49043],[121.43675,0.49253],[121.43769,0.4853],[121.43334,0.48227],[121.44057,0.47408],[121.44258,0.46613],[121.44504,0.46603],[121.44911,0.47604],[121.4516,0.47852],[121.45296,0.48519]]],[[[121.4391,0.47337],[121.43695,0.4743],[121.43531,0.47073],[121.43622,0.47023],[121.43753,0.47337],[121.43842,0.47015],[121.4391,0.47337]]]]},"properties":{"KECAMATAN":"POPAYATO","DESA":"TOROSIAJE JAYA","ID":107}},
{"type":"Feature","geometry":{"type":"Polygon","coordinates":[[[121.46262,0.48509],[121.45478,0.4889],[121.45194,0.48343],[121.4516,0.47852],[121.44911,0.47604],[121.44504,0.46603],[121.44951,0.46682],[121.45566,0.47306],[121.46211,0.47417],[121.46989,0.4799],[121.46262,0.48509]]]},"properties":{"KECAMATAN":"POPAYATO","DESA":"TOROSIAJE","ID":108}},
{"type":"Feature","geometry":{"type":"Polygon","coordinates":[[[121.57409,0.54346],[121.57268,0.54345],[121.57226,0.54724],[121.55126,0.54875],[121.55186,0.547],[121.55583,0.54626],[121.55583,0.53705],[121.55722,0.53651],[121.55681,0.53785],[121.55804,0.53823],[121.56252,0.53503],[121.56725,0.53571],[121.56851,0.53466],[121.56829,0.53178],[121.57045,0.53277],[121.57052,0.53156],[121.57205,0.53275],[121.57288,0.53177],[121.57527,0.5347],[121.57409,0.54346]]]},"properties":{"KECAMATAN":"LEMITO","DESA":"LEMITO","ID":45}},
{"type":"Feature","geometry":{"type":"Polygon","coordinates":[[[121.73984,0.84173],[121.74901,0.85],[121.75267,0.85162],[121.75257,0.8624],[121.74989,0.87246],[121.75061,0.89898],[121.75256,0.90806],[121.75768,0.91322],[121.75914,0.91715],[121.76185,0.93238],[121.75898,0.93307],[121.73545,0.92978],[121.71806,0.91991],[121.70931,0.91765],[121.70516,0.91427],[121.70113,0.907],[121.69646,0.90679],[121.69139,0.9027],[121.68758,0.90263],[121.68413,0.9005],[121.68169,0.89526],[121.68317,0.886],[121.6896,0.87352],[121.68956,0.86994],[121.68494,0.86483],[121.67834,0.86256],[121.67413,0.8633],[121.67343,0.85845],[121.66588,0.85447],[121.66736,0.85098],[121.66662,0.84866],[121.66058,0.84718],[121.65998,0.84142],[121.65533,0.83045],[121.65527,0.82074],[121.65154,0.81088],[121.65219,0.80734],[121.65424,0.80738],[121.65541,0.80258],[121.65662,0.80463],[121.65862,0.80175],[121.65975,0.8052],[121.66123,0.80128],[121.66628,0.7967],[121.66684,0.79347],[121.66465,0.79158],[121.66683,0.78973],[121.66978,0.78233],[121.66742,0.77652],[121.66783,0.77177],[121.66339,0.76416],[121.66502,0.76282],[121.66438,0.76014],[121.66768,0.75623],[121.66966,0.74876],[121.66523,0.74649],[121.6623,0.74765],[121.6655,0.73856],[121.66773,0.73698],[121.66564,0.73378],[121.66714,0.73118],[121.6596,0.72236],[121.6617,0.71378],[121.67154,0.70829],[121.67543,0.70276],[121.67191,0.7001],[121.66692,0.70017],[121.66296,0.69773],[121.6681,0.693],[121.67031,0.67981],[121.6768,0.66625],[121.67705,0.65998],[121.68029,0.65296],[121.67706,0.64845],[121.67552,0.63849],[121.67754,0.63655],[121.67947,0.62976],[121.67947,0.62031],[121.67635,0.61304],[121.67563,0.60261],[121.67141,0.59479],[121.67261,0.5591],[121.68918,0.56012],[121.71243,0.56035],[121.71315,0.60586],[121.70868,0.61837],[121.70715,0.6691],[121.70475,0.67147],[121.69928,0.69569],[121.70092,0.71201],[121.69438,0.7172],[121.70129,0.72795],[121.70238,0.73484],[121.70104,0.74307],[121.71199,0.75765],[121.71218,0.76191],[121.70804,0.76995],[121.70547,0.77213],[121.70597,0.77561],[121.70749,0.77789],[121.7141,0.77988],[121.71666,0.78405],[121.71528,0.78851],[121.71232,0.79109],[121.71192,0.79566],[121.70758,0.80439],[121.70714,0.81391],[121.71434,0.82063],[121.71245,0.82365],[121.71546,0.82434],[121.71642,0.82856],[121.71438,0.83198],[121.7172,0.83696],[121.72849,0.83722],[121.73279,0.84001],[121.73984,0.84173]]]},"properties":{"KECAMATAN":"WANGGARASI","DESA":"BUKIT HARAPAN","ID":169}},
{"type":"Feature","geometry":null,"properties":{"KECAMATAN":"PAGUAT","DESA":"MALEO","ID":76}},
{"type":"Feature","geometry":null,"properties":{"KECAMATAN":"MARISA","DESA":"TERATAI","ID":60}},
{"type":"Feature","geometry":null,"properties":{"KECAMATAN":"PAGUAT","DESA":"MALEO","ID":77}},
{"type":"Feature","geometry":null,"properties":{"KECAMATAN":"BUNTULIA","DESA":"TALUDUYUNU","ID":18}},
{"type":"Feature","geometry":{"type":"MultiPolygon","coordinates":[[[[121.95342,0.41524],[121.95441,0.41708],[121.95231,0.41772],[121.9515,0.41635],[121.95342,0.41524]]],[[[121.96836,0.4419],[121.9719,0.44393],[121.97095,0.4472],[121.96505,0.44473],[121.96555,0.44224],[121.96836,0.4419]]],[[[121.96916,0.45668],[121.96256,0.45741],[121.93742,0.45494],[121.94064,0.44681],[121.95306,0.45072],[121.96334,0.45138],[121.96916,0.45668]]]]},"properties":{"KECAMATAN":"MARISA","DESA":"POHUWATO TIMUR","ID":61}},
{"type":"Feature","geometry":{"type":"MultiPolygon","coordinates":[[[[121.93341,0.45479],[121.93679,0.4459],[121.93921,0.44478],[121.94064,0.44681],[121.93742,0.45494],[121.93341,0.45479]]],[[[121.93787,0.44347],[121.93869,0.4441],[121.93746,0.44483],[121.93787,0.44347]]]]},"properties":{"KECAMATAN":"MARISA","DESA":"POHUWATO","ID":62}},
{"type":"Feature","geometry":{"type":"Polygon","coordinates":[[[122.12145,0.50175],[122.12188,0.50456],[122.10529,0.50541],[122.0989,0.50333],[122.09911,0.50006],[122.10064,0.50018],[122.10094,0.5002],[122.1024,0.50031],[122.10627,0.50401],[122.1116,0.50383],[122.11359,0.50291],[122.11334,0.50114],[122.11682,0.5014],[122.1179,0.50281],[122.12025,0.50166],[122.12145,0.50175]]]},"properties":{"KECAMATAN":"PAGUAT","DESA":"MOLAMAHU","ID":78}},
{"type":"Feature","geometry":{"type":"MultiPolygon","coordinates":[[[[122.12114,0.40525],[122.11906,0.40813],[122.11691,0.40627],[122.12114,0.40525]]],[[[122.10952,0.47574],[122.10327,0.47858],[122.10111,0.47385],[122.10618,0.47173],[122.11412,0.47176],[122.11273,0.47561],[122.10952,0.47574]]],[[[122.13077,0.47844],[122.1313,0.47943],[122.12481,0.48168],[122.12664,0.47574],[122.12773,0.47777],[122.13077,0.47844]]],[[[122.12207,0.48754],[122.11906,0.48986],[122.11649,0.48582],[122.12207,0.48754]]],[[[122.07647,0.47724],[122.08139,0.47561],[122.08724,0.48193],[122.09203,0.48438],[122.09841,0.48385],[122.10196,0.48719],[122.11018,0.48524],[122.11276,0.48608],[122.11733,0.48889],[122.11439,0.49335],[122.11146,0.49318],[122.11165,0.48979],[122.10687,0.49],[122.10494,0.49231],[122.10119,0.49145],[122.10124,0.4926],[122.07578,0.48916],[122.07657,0.48429],[122.07657,0.48366],[122.07647,0.47724]]]]},"properties":{"KECAMATAN":"PAGUAT","DESA":"BUMBULAN","ID":79}}
]}